{"type":"FeatureCollection","features":[{"type":"Feature","properties":{"district_id":"AMP","district":"Ampara","constituent_admin_districts":["Ampara"],"source":"thejeshgn/srilanka electoral_districts_map (derived from GADM 2.7 LKA_adm1), CC-BY, simplified"},"geometry":{"type":"MultiPolygon","coordinates":[[[[81.7832,7.4488],[81.789,7.4424],[81.789,7.4346],[81.7857,7.4346],[81.7832,7.4488]]],[[[81.751,7.4579],[81.7607,7.4524],[81.7657,7.4599],[81.7729,7.4546],[81.7776,7.4779],[81.7835,7.4674],[81.7829,7.4343],[81.7904,7.4326],[81.7915,7.4215],[81.7982,7.421],[81.8001,7.4271],[81.7943,7.426],[81.791,7.4374],[81.7974,7.4338],[81.7926,7.4399],[81.7971,7.4588],[81.8051,7.4504],[81.8076,7.456],[81.8112,7.4529],[81.8063,7.4715],[81.8115,7.4765],[81.8251,7.4318],[81.8407,7.4112],[81.8621,7.3424],[81.868,7.2876],[81.864,7.2435],[81.8593,7.2476],[81.8618,7.1865],[81.8507,7.1874],[81.8485,7.1779],[81.8301,7.1654],[81.826,7.1749],[81.8221,7.156],[81.8276,7.1604],[81.8376,7.1365],[81.8296,7.1299],[81.8429,7.1193],[81.8463,7.1301],[81.8385,7.1382],[81.8496,7.1476],[81.8565,7.1418],[81.8543,7.1671],[81.8621,7.1843],[81.8576,7.1018],[81.8788,7.0226],[81.8674,6.994],[81.8654,6.964],[81.8432,6.9054],[81.8485,6.8976],[81.8432,6.8868],[81.846,6.8715],[81.8307,6.8543],[81.8399,6.8349],[81.8324,6.8346],[81.8224,6.8207],[81.8251,6.8096],[81.8182,6.7865],[81.8262,6.7632],[81.8096,6.7474],[81.8012,6.7318],[81.7993,6.706],[81.7726,6.6718],[81.7707,6.659],[81.7779,6.6465],[81.7599,6.611],[81.7629,6.5999],[81.7412,6.5796],[81.7246,6.536],[81.7082,6.5126],[81.6893,6.5127],[81.673,6.5223],[81.663,6.5395],[81.6502,6.545],[81.638,6.5422],[81.6081,6.5788],[81.6287,6.913],[81.6372,6.96],[81.6178,6.9791],[81.6209,6.9984],[81.6072,7.0259],[81.6192,7.0492],[81.6142,7.0685],[81.5961,7.0696],[81.5211,7.0975],[81.5113,7.1179],[81.5134,7.1363],[81.5003,7.1489],[81.5224,7.1976],[81.5531,7.2176],[81.534,7.24],[81.5231,7.2429],[81.5276,7.2536],[81.5188,7.2903],[81.479,7.3247],[81.4908,7.3378],[81.4724,7.393],[81.4771,7.4217],[81.462,7.4304],[81.4788,7.4547],[81.4553,7.458],[81.4219,7.4358],[81.4075,7.4331],[81.4057,7.4167],[81.3888,7.4079],[81.375,7.4104],[81.3737,7.3976],[81.386,7.3699],[81.3745,7.3585],[81.3655,7.3579],[81.3633,7.341],[81.3313,7.3341],[81.3207,7.3375],[81.323,7.2631],[81.3051,7.2574],[81.2847,7.2409],[81.2866,7.2486],[81.2774,7.2554],[81.2674,7.2806],[81.2716,7.2913],[81.2455,7.326],[81.2467,7.3344],[81.2372,7.3418],[81.2201,7.3329],[81.1937,7.3776],[81.201,7.3963],[81.1826,7.4442],[81.1992,7.4715],[81.1989,7.5009],[81.2069,7.5175],[81.2052,7.5565],[81.1895,7.5737],[81.1636,7.5699],[81.1132,7.5449],[81.0763,7.5121],[81.0648,7.5152],[81.0556,7.5061],[81.0418,7.5053],[81.0295,7.5379],[81.0155,7.5529],[81.0133,7.5959],[80.9856,7.6112],[80.9779,7.625],[80.9817,7.6432],[80.9947,7.6615],[80.9875,7.6888],[80.9927,7.7006],[80.9891,7.7217],[81.0493,7.7188],[81.0687,7.7308],[81.0944,7.7252],[81.1176,7.6899],[81.1939,7.6629],[81.214,7.647],[81.2208,7.6537],[81.2226,7.6721],[81.2394,7.6798],[81.2394,7.7134],[81.2337,7.722],[81.2412,7.7392],[81.2544,7.7309],[81.2632,7.7359],[81.3243,7.7346],[81.3287,7.7195],[81.3678,7.6673],[81.3834,7.6568],[81.4456,7.6421],[81.4475,7.6197],[81.4335,7.57],[81.452,7.5428],[81.4996,7.5213],[81.4943,7.5153],[81.5183,7.5091],[81.6178,7.5081],[81.6496,7.5252],[81.648,7.5026],[81.6606,7.4725],[81.6636,7.3988],[81.6703,7.4012],[81.6741,7.414],[81.6897,7.4203],[81.725,7.4554],[81.751,7.4579]]]]}},{"type":"Feature","properties":{"district_id":"ANU","district":"Anuradhapura","constituent_admin_districts":["Anuradhapura"],"source":"thejeshgn/srilanka electoral_districts_map (derived from GADM 2.7 LKA_adm1), CC-BY, simplified"},"geometry":{"type":"Polygon","coordinates":[[[80.9242,8.3369],[80.9114,8.3264],[80.8991,8.2809],[80.8044,8.2785],[80.7878,8.2312],[80.786,8.2057],[80.7594,8.1505],[80.7587,8.0686],[80.777,8.0659],[80.7497,8.0221],[80.7561,8.0124],[80.7059,7.9918],[80.6823,7.9567],[80.6685,7.9634],[80.6587,7.9601],[80.6529,7.9467],[80.6541,7.9152],[80.6324,7.9002],[80.639,7.8885],[80.6229,7.8826],[80.6228,7.8686],[80.6007,7.8558],[80.5931,7.8581],[80.5902,7.8672],[80.576,7.8684],[80.5652,7.8489],[80.5244,7.8273],[80.4999,7.8261],[80.4991,7.8151],[80.4825,7.8226],[80.4776,7.8432],[80.4681,7.8501],[80.4794,7.8802],[80.4631,7.9162],[80.4604,7.9473],[80.4485,7.9563],[80.4302,7.9489],[80.4181,7.9512],[80.4272,7.9625],[80.4154,8.0071],[80.4195,8.0449],[80.4055,8.0562],[80.3928,8.0488],[80.3711,8.0575],[80.309,8.1174],[80.2657,8.1153],[80.2487,8.1354],[80.2118,8.143],[80.2052,8.1526],[80.1885,8.1504],[80.1825,8.1619],[80.1252,8.1791],[80.0783,8.2221],[80.0611,8.2194],[80.0369,8.2356],[80.0244,8.2252],[79.9993,8.2276],[79.9962,8.2528],[79.9816,8.2785],[79.9736,8.34],[79.9518,8.3699],[79.9556,8.3948],[79.9772,8.3985],[79.9911,8.4153],[79.9887,8.4223],[80.016,8.4408],[80.0428,8.4953],[80.0325,8.5271],[80.0504,8.5219],[80.0553,8.637],[80.0444,8.6732],[80.0801,8.6536],[80.1138,8.6494],[80.2354,8.6804],[80.2372,8.629],[80.2515,8.6154],[80.2597,8.618],[80.2745,8.611],[80.2885,8.5606],[80.3376,8.546],[80.3521,8.5731],[80.3691,8.5748],[80.38,8.5838],[80.381,8.6218],[80.4002,8.635],[80.4105,8.6595],[80.4219,8.6621],[80.4242,8.674],[80.4527,8.6923],[80.5067,8.6584],[80.5209,8.6594],[80.5302,8.6728],[80.57,8.7004],[80.5736,8.7167],[80.5893,8.7221],[80.6012,8.7444],[80.6185,8.7526],[80.6339,8.7799],[80.6514,8.7904],[80.6513,8.8034],[80.6372,8.8154],[80.6271,8.8371],[80.593,8.8469],[80.5954,8.8697],[80.6675,8.8714],[80.7125,8.8988],[80.7513,8.9045],[80.7848,8.9206],[80.8123,8.9153],[80.8535,8.887],[80.8715,8.8821],[80.9126,8.8369],[80.9109,8.8236],[80.8831,8.7886],[80.8795,8.7676],[80.8788,8.7527],[80.891,8.7426],[80.8914,8.7225],[80.9135,8.68],[80.8934,8.6461],[80.8939,8.6219],[80.9159,8.6051],[80.9171,8.5848],[80.944,8.5518],[80.9473,8.5075],[80.9636,8.4983],[80.9633,8.4857],[80.9859,8.4849],[80.9909,8.4748],[80.9717,8.4686],[80.9726,8.4601],[80.9538,8.4392],[80.9414,8.3978],[80.9275,8.3743],[80.9242,8.3369]]]}},{"type":"Feature","properties":{"district_id":"BAD","district":"Badulla","constituent_admin_districts":["Badulla"],"source":"thejeshgn/srilanka electoral_districts_map (derived from GADM 2.7 LKA_adm1), CC-BY, simplified"},"geometry":{"type":"Polygon","coordinates":[[[81.2705,7.2769],[81.2315,7.2676],[81.2359,7.2395],[81.2069,7.2015],[81.1887,7.1911],[81.1853,7.1725],[81.1644,7.1735],[81.1521,7.1948],[81.1404,7.1883],[81.1242,7.1654],[81.1225,7.1535],[81.159,7.1142],[81.1687,7.0841],[81.2128,7.0967],[81.2191,7.0806],[81.2293,7.0844],[81.2434,7.0457],[81.2453,7.0109],[81.2318,6.9886],[81.2343,6.9657],[81.2204,6.9606],[81.2273,6.9469],[81.2067,6.9398],[81.2017,6.9323],[81.2056,6.9226],[81.187,6.9213],[81.1828,6.9288],[81.1755,6.9028],[81.1126,6.8726],[81.11,6.8632],[81.118,6.862],[81.1374,6.8387],[81.1181,6.8291],[81.0966,6.8279],[81.0989,6.8125],[81.0936,6.8091],[81.0658,6.8137],[81.0611,6.7828],[81.0648,6.7618],[81.0515,6.739],[81.056,6.7345],[81.0711,6.7375],[81.085,6.728],[81.078,6.7073],[81.0647,6.6998],[81.061,6.6497],[81.0648,6.6332],[81.0864,6.6104],[81.0764,6.6112],[81.0622,6.5992],[81.0624,6.5785],[81.0408,6.5906],[81.0338,6.5835],[81.0251,6.5732],[81.0227,6.5422],[80.9956,6.5751],[80.9998,6.6143],[80.9909,6.6206],[80.979,6.6171],[80.9769,6.6443],[80.9689,6.6545],[80.9534,6.6552],[80.9519,6.6719],[80.94,6.6779],[80.9394,6.6909],[80.928,6.6876],[80.915,6.6947],[80.9079,6.6785],[80.8907,6.6756],[80.8816,6.664],[80.8636,6.6656],[80.8574,6.6575],[80.8476,6.6666],[80.8297,6.6696],[80.8255,6.6896],[80.8118,6.7036],[80.8549,6.7194],[80.8503,6.7301],[80.8579,6.7415],[80.8535,6.7466],[80.8347,6.7455],[80.827,6.7617],[80.8115,6.7557],[80.8095,6.792],[80.8264,6.7931],[80.8355,6.8027],[80.8384,6.8119],[80.8193,6.8188],[80.8151,6.8285],[80.8334,6.8341],[80.8387,6.8451],[80.8217,6.8621],[80.8252,6.8765],[80.813,6.8798],[80.8112,6.9017],[80.7771,6.913],[80.7813,6.9214],[80.8126,6.9174],[80.828,6.9259],[80.8356,6.9544],[80.8634,6.9782],[80.8761,6.9737],[80.8997,6.9773],[80.9203,6.9902],[80.9304,7.0382],[80.9663,7.0777],[80.9525,7.1014],[80.9659,7.1218],[80.9516,7.129],[80.9502,7.1386],[80.9538,7.1456],[80.9619,7.1421],[80.9625,7.1571],[80.9437,7.1971],[80.9729,7.1963],[80.9833,7.2126],[81.0082,7.2165],[81.0163,7.2313],[80.9765,7.3618],[80.9826,7.3948],[80.9696,7.4121],[80.9752,7.427],[80.9711,7.534],[80.9779,7.625],[80.9856,7.6112],[81.0133,7.5959],[81.0155,7.5529],[81.0295,7.5379],[81.0418,7.5053],[81.0556,7.5061],[81.0648,7.5152],[81.0763,7.5121],[81.1132,7.5449],[81.1636,7.5699],[81.1879,7.5741],[81.1987,7.5644],[81.2054,7.5554],[81.2068,7.5164],[81.1989,7.5009],[81.1992,7.4715],[81.1826,7.4442],[81.201,7.3963],[81.1937,7.3776],[81.2201,7.3329],[81.2372,7.3418],[81.2461,7.3353],[81.2455,7.326],[81.2716,7.2913],[81.2705,7.2769]]]}},{"type":"Feature","properties":{"district_id":"BAT","district":"Batticaloa","constituent_admin_districts":["Batticaloa"],"source":"thejeshgn/srilanka electoral_districts_map (derived from GADM 2.7 LKA_adm1), CC-BY, simplified"},"geometry":{"type":"MultiPolygon","coordinates":[[[[81.8171,7.4662],[81.814,7.4713],[81.809,7.4946],[81.8163,7.476],[81.8171,7.4662]]],[[[81.8051,7.496],[81.8101,7.4838],[81.8057,7.4801],[81.8026,7.4893],[81.8051,7.496]]],[[[81.731,7.6357],[81.7329,7.634],[81.731,7.6337],[81.731,7.6357]]],[[[81.7257,7.6415],[81.7288,7.6365],[81.7274,7.6363],[81.7257,7.6415]]],[[[81.7032,7.6568],[81.7049,7.649],[81.7015,7.6479],[81.6976,7.6529],[81.7032,7.6568]]],[[[81.6588,7.7015],[81.6663,7.7015],[81.6618,7.6962],[81.6588,7.7015]]],[[[81.699,7.7038],[81.7068,7.6999],[81.7093,7.6874],[81.6946,7.6713],[81.6896,7.6896],[81.699,7.7038]]],[[[81.6851,7.711],[81.7026,7.7112],[81.6899,7.7032],[81.6851,7.711]]],[[[81.6929,7.7563],[81.7065,7.7426],[81.756,7.6638],[81.7838,7.6079],[81.8079,7.5149],[81.8093,7.499],[81.7993,7.4946],[81.7976,7.4751],[81.7732,7.4904],[81.7782,7.499],[81.7871,7.4885],[81.7879,7.5015],[81.7815,7.4979],[81.7696,7.5035],[81.7829,7.5187],[81.7718,7.556],[81.7801,7.5837],[81.7654,7.5929],[81.7474,7.641],[81.7337,7.6382],[81.721,7.6565],[81.7268,7.6676],[81.7079,7.7112],[81.711,7.7301],[81.6929,7.7563]]],[[[81.5082,7.8076],[81.5115,7.8076],[81.5096,7.8054],[81.5082,7.8076]]],[[[81.5218,7.9285],[81.526,7.9296],[81.5293,7.9282],[81.5218,7.9285]]],[[[81.4646,8.1101],[81.4615,8.1107],[81.4646,8.1126],[81.4646,8.1101]]],[[[81.3876,8.1449],[81.389,8.1429],[81.3871,8.1438],[81.3876,8.1449]]],[[[81.404,8.2631],[81.4143,8.2179],[81.4337,8.1779],[81.4318,8.1637],[81.4362,8.136],[81.4424,8.1221],[81.4393,8.1165],[81.4399,8.1007],[81.4274,8.0999],[81.4101,8.134],[81.3968,8.1946],[81.3921,8.1896],[81.3857,8.194],[81.381,8.1821],[81.3849,8.1851],[81.3871,8.1799],[81.3801,8.1679],[81.3857,8.1429],[81.3968,8.1326],[81.4049,8.1332],[81.4085,8.1068],[81.4371,8.0876],[81.4437,8.1082],[81.4404,8.1143],[81.444,8.1179],[81.4468,8.1126],[81.4457,8.1213],[81.4401,8.1321],[81.439,8.1351],[81.4396,8.1368],[81.4599,8.1101],[81.4568,8.0938],[81.4626,8.0699],[81.4887,8.0151],[81.5279,7.9843],[81.5443,7.9926],[81.5488,7.9865],[81.5457,7.9954],[81.5535,7.9896],[81.539,7.9646],[81.5499,7.9415],[81.5368,7.9321],[81.5207,7.9324],[81.5132,7.9204],[81.5182,7.9093],[81.5107,7.9015],[81.5129,7.8935],[81.5179,7.8954],[81.5176,7.8785],[81.5246,7.8668],[81.5176,7.8663],[81.5174,7.8585],[81.5301,7.8579],[81.5474,7.8279],[81.5401,7.826],[81.536,7.8332],[81.5324,7.8263],[81.5126,7.831],[81.5135,7.819],[81.5043,7.8074],[81.5096,7.8035],[81.5151,7.8054],[81.531,7.8146],[81.529,7.8199],[81.5413,7.8104],[81.5471,7.8096],[81.551,7.8318],[81.5415,7.8415],[81.5443,7.8482],[81.5387,7.8476],[81.5251,7.8646],[81.5185,7.8965],[81.5129,7.9026],[81.5196,7.9068],[81.516,7.9224],[81.5415,7.9276],[81.5574,7.9429],[81.564,7.9262],[81.5832,7.9207],[81.5693,7.9185],[81.5635,7.9012],[81.5671,7.874],[81.5815,7.8432],[81.6007,7.824],[81.6129,7.8215],[81.6204,7.8282],[81.6407,7.7871],[81.6846,7.7574],[81.7065,7.726],[81.6999,7.7137],[81.6774,7.729],[81.6829,7.7193],[81.6793,7.7099],[81.6879,7.7018],[81.6843,7.6921],[81.6732,7.6918],[81.6643,7.7224],[81.6674,7.7332],[81.6524,7.7476],[81.6396,7.7468],[81.6021,7.7715],[81.5954,7.7685],[81.5954,7.7585],[81.5849,7.7549],[81.5882,7.7497],[81.5799,7.7426],[81.5788,7.7249],[81.6093,7.7121],[81.6201,7.7343],[81.634,7.7226],[81.6579,7.721],[81.6462,7.7082],[81.6663,7.6907],[81.6671,7.6782],[81.6857,7.679],[81.6971,7.6562],[81.6885,7.6521],[81.6865,7.6396],[81.6932,7.6388],[81.6899,7.6285],[81.7007,7.6104],[81.7051,7.6101],[81.6982,7.6307],[81.7043,7.6413],[81.7113,7.6346],[81.7218,7.6482],[81.7279,7.624],[81.7399,7.6243],[81.7549,7.5987],[81.749,7.5904],[81.7707,7.5799],[81.7604,7.5657],[81.7446,7.5635],[81.7557,7.5524],[81.7654,7.5604],[81.7696,7.5368],[81.7557,7.5368],[81.7454,7.5476],[81.7393,7.5437],[81.7443,7.5287],[81.7549,7.5354],[81.7663,7.534],[81.7735,7.5212],[81.7815,7.5215],[81.769,7.5118],[81.7671,7.5015],[81.7474,7.5082],[81.7688,7.4785],[81.7599,7.479],[81.7511,7.4558],[81.7242,7.4548],[81.6897,7.4203],[81.6741,7.414],[81.6645,7.3989],[81.6606,7.4725],[81.648,7.5026],[81.6496,7.5252],[81.6178,7.5081],[81.5183,7.5091],[81.4943,7.5153],[81.4996,7.5213],[81.452,7.5428],[81.4335,7.57],[81.4475,7.6197],[81.4456,7.6421],[81.3834,7.6568],[81.3678,7.6673],[81.3287,7.7195],[81.3243,7.7346],[81.2632,7.7359],[81.2544,7.7309],[81.2412,7.7392],[81.2274,7.7789],[81.2249,7.8235],[81.233,7.8521],[81.2277,7.8658],[81.2369,7.8887],[81.2374,7.9209],[81.253,7.9363],[81.2747,7.9368],[81.2892,7.9466],[81.3079,7.9375],[81.3399,7.9375],[81.34,7.9571],[81.3063,8.0295],[81.3141,8.2398],[81.31,8.2527],[81.3286,8.2646],[81.3526,8.2682],[81.3593,8.2546],[81.3853,8.2541],[81.3909,8.262],[81.3931,8.2508],[81.4,8.2491],[81.404,8.2631]]]]}},{"type":"Feature","properties":{"district_id":"COL","district":"Colombo","constituent_admin_districts":["Colombo"],"source":"thejeshgn/srilanka electoral_districts_map (derived from GADM 2.7 LKA_adm1), CC-BY, simplified"},"geometry":{"type":"MultiPolygon","coordinates":[[[[79.9016,6.7146],[79.9007,6.7138],[79.9007,6.7146],[79.9016,6.7146]]],[[[80.1703,6.9794],[80.217,6.9747],[80.2234,6.9493],[80.2202,6.9362],[80.208,6.9375],[80.2107,6.9187],[80.2009,6.9036],[80.1907,6.8994],[80.177,6.8592],[80.1947,6.8508],[80.2019,6.8151],[80.1802,6.8135],[80.1745,6.8193],[80.1642,6.8149],[80.1588,6.823],[80.1474,6.8241],[80.1158,6.8051],[80.1246,6.7823],[80.1203,6.7706],[80.1063,6.776],[80.0899,6.8154],[80.0766,6.8151],[80.0618,6.79],[80.0366,6.806],[80.0041,6.7709],[79.9794,6.7582],[79.9513,6.7626],[79.9428,6.748],[79.92,6.7488],[79.9132,6.7643],[79.8886,6.7759],[79.9036,6.7242],[79.9007,6.7168],[79.8632,6.8224],[79.8574,6.8741],[79.8399,6.9357],[79.8446,6.9535],[79.8479,6.939],[79.8532,6.9607],[79.8682,6.9688],[79.8696,6.9774],[79.8823,6.9772],[79.8785,6.9574],[79.8993,6.9557],[79.8998,6.9473],[79.9102,6.9506],[79.9157,6.946],[79.9224,6.9524],[79.9354,6.9494],[79.9443,6.9384],[79.956,6.9428],[79.9868,6.9353],[79.9945,6.9435],[80.0141,6.9461],[80.0204,6.9248],[80.0605,6.907],[80.0654,6.9128],[80.0747,6.9076],[80.0937,6.9114],[80.0991,6.9516],[80.1099,6.9632],[80.1217,6.9658],[80.1244,6.9743],[80.1663,6.97],[80.1703,6.9794]]]]}},{"type":"Feature","properties":{"district_id":"GAL","district":"Galle","constituent_admin_districts":["Galle"],"source":"thejeshgn/srilanka electoral_districts_map (derived from GADM 2.7 LKA_adm1), CC-BY, simplified"},"geometry":{"type":"Polygon","coordinates":[[[80.3819,6.4259],[80.4191,6.3924],[80.4315,6.3893],[80.4405,6.3947],[80.4721,6.3782],[80.491,6.3801],[80.4953,6.3676],[80.4781,6.3652],[80.4605,6.3515],[80.4957,6.2996],[80.4857,6.2845],[80.4751,6.2804],[80.4538,6.2881],[80.4461,6.3013],[80.4055,6.3333],[80.3775,6.3251],[80.3935,6.3034],[80.4132,6.2929],[80.4219,6.2727],[80.4392,6.2546],[80.4352,6.2483],[80.4413,6.2405],[80.4355,6.2366],[80.44,6.226],[80.4267,6.2142],[80.3834,6.221],[80.4031,6.1904],[80.3879,6.1862],[80.3961,6.1716],[80.3847,6.1652],[80.3862,6.1379],[80.4004,6.1284],[80.4061,6.114],[80.4206,6.1106],[80.4389,6.0937],[80.4367,6.0864],[80.4108,6.0691],[80.4047,6.0529],[80.3893,6.0546],[80.3916,6.0339],[80.4121,6.0323],[80.4233,6.0187],[80.3901,6.0072],[80.3819,5.9837],[80.3849,5.9649],[80.3129,5.9924],[80.2635,5.999],[80.2499,6.0099],[80.2426,6.0057],[80.2349,6.0176],[80.2426,6.0279],[80.239,6.0324],[80.229,6.0304],[80.2313,6.0346],[80.2237,6.0365],[80.2168,6.024],[80.2162,6.0313],[80.1824,6.0499],[80.176,6.0621],[80.1232,6.1013],[80.1229,6.1118],[80.1001,6.131],[80.0987,6.149],[80.0885,6.1674],[80.0618,6.1932],[80.0638,6.204],[80.0529,6.2346],[80.0329,6.2688],[80.038,6.2954],[80.0207,6.3476],[80.0251,6.3415],[80.0332,6.3438],[80.0249,6.3438],[80.0157,6.3565],[79.989,6.4396],[79.9987,6.4261],[80.0076,6.4358],[80.0165,6.4354],[80.0289,6.4198],[80.0622,6.408],[80.0712,6.3969],[80.0885,6.401],[80.131,6.3659],[80.1548,6.3667],[80.1915,6.3542],[80.2077,6.3591],[80.2074,6.3722],[80.2129,6.3715],[80.216,6.3798],[80.2421,6.3757],[80.298,6.3249],[80.3021,6.3404],[80.2909,6.3702],[80.2906,6.392],[80.3123,6.3964],[80.3681,6.4272],[80.3819,6.4259]]]}},{"type":"Feature","properties":{"district_id":"GAM","district":"Gampaha","constituent_admin_districts":["Gampaha"],"source":"thejeshgn/srilanka electoral_districts_map (derived from GADM 2.7 LKA_adm1), CC-BY, simplified"},"geometry":{"type":"MultiPolygon","coordinates":[[[[79.8288,7.1915],[79.8276,7.1874],[79.8276,7.1915],[79.8288,7.1915]]],[[[79.8288,7.1935],[79.8321,7.1935],[79.8315,7.1907],[79.8288,7.1935]]],[[[80.1936,7.2572],[80.1985,7.2446],[80.1836,7.2338],[80.184,7.1932],[80.1623,7.1921],[80.1569,7.1826],[80.1453,7.1873],[80.1537,7.1757],[80.1536,7.1478],[80.162,7.1234],[80.174,7.1335],[80.2022,7.1343],[80.2084,7.1295],[80.1939,7.1004],[80.1853,7.1009],[80.1642,7.0586],[80.1824,6.9952],[80.1806,6.9787],[80.1703,6.9794],[80.1663,6.97],[80.1239,6.974],[80.1217,6.9658],[80.1099,6.9632],[80.0991,6.9516],[80.0937,6.9114],[80.0757,6.9076],[80.0654,6.9128],[80.0551,6.9075],[80.0534,6.913],[80.0208,6.9245],[80.0141,6.9461],[79.9945,6.9435],[79.9868,6.9353],[79.956,6.9428],[79.9448,6.9383],[79.9341,6.9501],[79.8998,6.9473],[79.8993,6.9557],[79.8798,6.9559],[79.8836,6.9746],[79.8693,6.9782],[79.8424,7.1115],[79.8176,7.1968],[79.819,7.2074],[79.8257,7.2085],[79.8307,7.2001],[79.8232,7.1821],[79.8388,7.1457],[79.839,7.1307],[79.8476,7.1201],[79.8454,7.1118],[79.8518,7.1071],[79.8587,7.1118],[79.8624,7.1257],[79.8674,7.1124],[79.8718,7.121],[79.866,7.1685],[79.8482,7.1993],[79.8326,7.1885],[79.8324,7.2018],[79.8285,7.2074],[79.8388,7.2224],[79.8424,7.271],[79.8499,7.2718],[79.8454,7.2724],[79.844,7.2737],[79.8548,7.2772],[79.862,7.2702],[79.8763,7.2834],[79.889,7.2742],[79.9094,7.2804],[79.9069,7.2671],[79.9258,7.2828],[79.9451,7.2727],[79.9464,7.2789],[79.9543,7.2801],[79.9497,7.2885],[79.9757,7.2915],[80.0052,7.3192],[80.0133,7.3134],[80.0255,7.3162],[80.0222,7.311],[80.0288,7.3017],[80.0447,7.2998],[80.0525,7.2846],[80.0588,7.284],[80.1243,7.3306],[80.1482,7.3115],[80.1449,7.3001],[80.1682,7.2829],[80.1833,7.2598],[80.1936,7.2572]]]]}},{"type":"Feature","properties":{"district_id":"HAM","district":"Hambantota","constituent_admin_districts":["Hambantota"],"source":"thejeshgn/srilanka electoral_districts_map (derived from GADM 2.7 LKA_adm1), CC-BY, simplified"},"geometry":{"type":"Polygon","coordinates":[[[81.7032,6.5133],[81.7038,6.5021],[81.6932,6.4874],[81.6626,6.466],[81.6493,6.4457],[81.6199,6.4338],[81.6137,6.4237],[81.6193,6.4176],[81.5996,6.399],[81.5585,6.3738],[81.5651,6.374],[81.566,6.3721],[81.5243,6.3626],[81.5057,6.3521],[81.4949,6.3285],[81.4837,6.3235],[81.4815,6.3104],[81.4701,6.3135],[81.4674,6.306],[81.4401,6.2971],[81.4018,6.2515],[81.3401,6.2238],[81.3246,6.199],[81.241,6.1815],[81.226,6.1646],[81.1893,6.1599],[81.1979,6.164],[81.2001,6.1765],[81.2024,6.1729],[81.2054,6.1746],[81.1974,6.1838],[81.1851,6.1826],[81.1888,6.186],[81.1857,6.1935],[81.1835,6.1832],[81.1726,6.1793],[81.1835,6.1576],[81.1685,6.1457],[81.1301,6.1321],[81.1268,6.1237],[81.1312,6.1212],[81.056,6.1113],[81.051,6.1062],[81.0146,6.1082],[80.9779,6.0871],[80.9362,6.0807],[80.9351,6.0832],[80.9374,6.0849],[80.9365,6.0871],[80.9337,6.0826],[80.936,6.0754],[80.9024,6.0635],[80.8885,6.0674],[80.8915,6.0632],[80.8693,6.0574],[80.8615,6.0426],[80.8371,6.0454],[80.8054,6.0382],[80.7979,6.0282],[80.7999,6.0207],[80.7904,6.0188],[80.7801,6.0054],[80.7482,5.9982],[80.749,5.9887],[80.7363,5.9821],[80.7374,5.9718],[80.7029,5.9932],[80.6883,5.9907],[80.6869,6.0086],[80.6986,6.0185],[80.6922,6.0264],[80.6666,6.0253],[80.6638,6.0389],[80.655,6.0431],[80.6615,6.0524],[80.6921,6.0632],[80.6937,6.0757],[80.682,6.0895],[80.6802,6.1021],[80.6956,6.1175],[80.689,6.1239],[80.6638,6.1192],[80.6605,6.1285],[80.6481,6.1334],[80.6466,6.1408],[80.6623,6.1664],[80.6602,6.1736],[80.6371,6.17],[80.6288,6.1813],[80.6115,6.1885],[80.6083,6.1996],[80.6385,6.2526],[80.6623,6.2615],[80.6527,6.271],[80.6636,6.2873],[80.6582,6.304],[80.7021,6.3071],[80.798,6.2671],[80.8579,6.272],[80.8692,6.2667],[80.882,6.2464],[80.8926,6.2491],[80.9104,6.2381],[80.9311,6.2401],[80.9397,6.2279],[80.9527,6.2388],[80.9413,6.2706],[80.9349,6.2713],[80.932,6.2849],[80.9199,6.2958],[80.9679,6.3254],[81.0182,6.3447],[81.0226,6.3589],[81.0075,6.3692],[81.0083,6.3878],[81.0132,6.396],[81.037,6.3913],[81.0494,6.4068],[81.0491,6.4218],[81.0616,6.4113],[81.0709,6.4238],[81.1012,6.4183],[81.1369,6.4211],[81.1446,6.3975],[81.1569,6.3926],[81.1843,6.4055],[81.211,6.3672],[81.2244,6.3578],[81.2244,6.3455],[81.2535,6.3408],[81.2735,6.3551],[81.2784,6.3691],[81.3673,6.3906],[81.3721,6.3976],[81.384,6.3985],[81.3933,6.4147],[81.4008,6.4064],[81.4397,6.4199],[81.4734,6.4089],[81.4798,6.4193],[81.4762,6.4488],[81.4862,6.4643],[81.4793,6.4731],[81.4812,6.4947],[81.524,6.5197],[81.5324,6.5355],[81.5469,6.5365],[81.5646,6.5542],[81.5818,6.5509],[81.5887,6.5608],[81.6004,6.5617],[81.6081,6.5788],[81.638,6.5422],[81.651,6.5449],[81.6636,6.539],[81.6854,6.5138],[81.7032,6.5133]]]}},{"type":"Feature","properties":{"district_id":"JAF","district":"Jaffna","constituent_admin_districts":["Jaffna"],"source":"thejeshgn/srilanka electoral_districts_map (derived from GADM 2.7 LKA_adm1), CC-BY, simplified"},"geometry":{"type":"MultiPolygon","coordinates":[[[[79.5238,9.3929],[79.5299,9.3888],[79.5291,9.384],[79.5226,9.3865],[79.5238,9.3929]]],[[[80.5857,9.469],[80.5879,9.4682],[80.5857,9.4676],[80.5857,9.469]]],[[[80.5915,9.4701],[80.5904,9.4626],[80.5874,9.4626],[80.5857,9.4668],[80.5915,9.4701]]],[[[80.5951,9.4785],[80.6149,9.4651],[80.6196,9.4585],[80.5932,9.464],[80.5951,9.4785]]],[[[80.5237,9.5071],[80.528,9.5052],[80.5421,9.4976],[80.524,9.5043],[80.5237,9.5071]]],[[[80.4901,9.5196],[80.5065,9.5174],[80.5232,9.5068],[80.4901,9.5196]]],[[[79.6607,9.5557],[79.6724,9.5538],[79.6796,9.5404],[79.6951,9.5301],[79.7257,9.5257],[79.7313,9.4931],[79.7246,9.4768],[79.704,9.476],[79.6543,9.5051],[79.6501,9.5449],[79.6607,9.5557]]],[[[80.1951,9.5937],[80.1996,9.5965],[80.2004,9.5937],[80.1951,9.5937]]],[[[79.7951,9.6007],[79.8024,9.589],[79.8004,9.5774],[79.791,9.5829],[79.7951,9.6007]]],[[[80.1979,9.6015],[80.1937,9.6018],[80.1979,9.6024],[80.1979,9.6015]]],[[[79.829,9.6021],[79.8313,9.6018],[79.8329,9.5999],[79.829,9.6021]]],[[[79.834,9.6026],[79.8368,9.6018],[79.8365,9.6012],[79.834,9.6026]]],[[[79.8521,9.6168],[79.8557,9.6171],[79.8557,9.6165],[79.8521,9.6168]]],[[[79.771,9.6224],[79.7754,9.6204],[79.7738,9.584],[79.7626,9.5899],[79.7607,9.6054],[79.771,9.6224]]],[[[79.8368,9.624],[79.8393,9.6243],[79.8393,9.6232],[79.8368,9.624]]],[[[80.2038,9.6287],[80.2049,9.6232],[80.196,9.6218],[80.2015,9.6246],[80.1965,9.6279],[80.2038,9.6287]]],[[[79.8549,9.6357],[79.8646,9.6249],[79.8615,9.6165],[79.8529,9.624],[79.8549,9.6357]]],[[[79.8568,9.6421],[79.8604,9.6401],[79.856,9.6404],[79.8568,9.6421]]],[[[80.0163,9.6429],[80.0201,9.6449],[80.0199,9.6429],[80.0163,9.6429]]],[[[80.0035,9.6487],[80.011,9.6449],[80.0137,9.6412],[80.0051,9.6449],[80.0035,9.6487]]],[[[80.1607,9.6493],[80.1629,9.6457],[80.1657,9.6454],[80.1599,9.6443],[80.1607,9.6493]]],[[[80.1624,9.6499],[80.1646,9.6479],[80.1618,9.6485],[80.1624,9.6499]]],[[[79.9896,9.6526],[79.9935,9.654],[79.9935,9.6529],[79.9896,9.6526]]],[[[79.7826,9.6879],[79.7862,9.6657],[79.7735,9.6529],[79.7777,9.6511],[79.7751,9.6438],[79.7626,9.6576],[79.7826,9.6879]]],[[[79.7904,9.6882],[79.794,9.6821],[79.7926,9.6807],[79.7904,9.6882]]],[[[79.8593,9.7043],[79.8715,9.694],[79.8846,9.7004],[79.8913,9.6968],[79.9007,9.6832],[79.8962,9.6749],[79.909,9.6569],[79.9021,9.6715],[79.9224,9.6763],[79.9154,9.681],[79.9368,9.6793],[79.9368,9.6654],[79.9249,9.6604],[79.9479,9.644],[79.969,9.6321],[79.9807,9.6324],[79.9843,9.6435],[79.9999,9.6379],[80.0071,9.6299],[80.0013,9.6057],[79.9879,9.5976],[79.9735,9.6001],[79.966,9.6051],[79.9643,9.611],[79.9774,9.6054],[79.9821,9.6215],[79.9696,9.6124],[79.9479,9.6257],[79.9185,9.6332],[79.9071,9.6162],[79.8918,9.6229],[79.8626,9.6068],[79.8621,9.5707],[79.8568,9.5679],[79.804,9.5754],[79.8121,9.6274],[79.8165,9.6226],[79.821,9.626],[79.8251,9.6149],[79.8229,9.6138],[79.8215,9.6115],[79.8201,9.6024],[79.8343,9.5921],[79.8351,9.599],[79.8454,9.5949],[79.8496,9.596],[79.8396,9.6099],[79.8221,9.6062],[79.8249,9.6143],[79.8349,9.6113],[79.8443,9.6199],[79.8623,9.6074],[79.8926,9.624],[79.8715,9.6351],[79.8643,9.6501],[79.8649,9.6568],[79.8779,9.6604],[79.8779,9.6679],[79.8635,9.6743],[79.8704,9.6651],[79.861,9.6576],[79.8446,9.6801],[79.8496,9.691],[79.8399,9.7029],[79.8593,9.7043]]],[[[79.8143,9.7157],[79.8138,9.6857],[79.8115,9.6849],[79.8071,9.6968],[79.8143,9.7157]]],[[[79.9274,9.7226],[79.9287,9.721],[79.9274,9.7204],[79.9274,9.7226]]],[[[79.9029,9.7485],[79.9099,9.749],[79.9085,9.7454],[79.9029,9.7485]]],[[[80.2993,9.5899],[80.2104,9.6399],[80.1657,9.656],[80.1554,9.646],[80.1621,9.6399],[80.1674,9.6468],[80.1718,9.6429],[80.1724,9.6232],[80.1696,9.6218],[80.1607,9.6254],[80.1593,9.6243],[80.1707,9.6199],[80.1787,9.6243],[80.1813,9.6187],[80.194,9.624],[80.1988,9.6118],[80.1857,9.6049],[80.1765,9.6093],[80.1704,9.6079],[80.181,9.6057],[80.1843,9.5982],[80.1932,9.6015],[80.1929,9.5962],[80.1882,9.596],[80.1807,9.5929],[80.2082,9.5857],[80.1993,9.5751],[80.2002,9.5821],[80.171,9.5976],[80.1435,9.6235],[80.0788,9.6529],[80.0774,9.6597],[80.0765,9.651],[80.0915,9.6415],[80.0785,9.6471],[80.0793,9.6426],[80.0971,9.6354],[80.1199,9.6126],[80.1351,9.609],[80.0987,9.6176],[80.0521,9.6485],[80.0207,9.6493],[80.0054,9.6624],[79.9957,9.6476],[80.0062,9.6382],[79.9966,9.6396],[79.991,9.6446],[80.0051,9.6632],[79.9974,9.6882],[79.9896,9.6921],[79.9796,9.6851],[79.9665,9.7049],[79.956,9.6899],[79.9424,9.691],[79.9307,9.7124],[79.9321,9.7243],[79.9185,9.7438],[79.8968,9.7388],[79.8965,9.7276],[79.889,9.7285],[79.8918,9.7118],[79.8788,9.704],[79.8651,9.7063],[79.8507,9.7135],[79.8618,9.7285],[79.8546,9.7496],[79.8637,9.7626],[79.8999,9.7676],[79.8954,9.7418],[79.9187,9.7443],[79.9043,9.7618],[79.9112,9.776],[79.9287,9.7776],[79.9454,9.7946],[79.9842,9.8105],[80.0349,9.8174],[80.0301,9.8238],[80.0471,9.816],[80.1021,9.809],[80.1285,9.8207],[80.1343,9.8176],[80.1399,9.8254],[80.1888,9.8276],[80.2087,9.8357],[80.2482,9.8282],[80.2832,9.7662],[80.3487,9.6779],[80.571,9.4963],[80.5918,9.4726],[80.5801,9.4732],[80.5396,9.5007],[80.546,9.499],[80.5437,9.5024],[80.511,9.5185],[80.4749,9.524],[80.451,9.5451],[80.4432,9.5315],[80.4318,9.5313],[80.4418,9.5165],[80.4015,9.5368],[80.4126,9.5063],[80.4068,9.4987],[80.4151,9.5074],[80.4174,9.5049],[80.4193,9.5049],[80.4199,9.5135],[80.4349,9.504],[80.4371,9.5157],[80.4399,9.5154],[80.4351,9.5035],[80.4679,9.5024],[80.4815,9.4885],[80.4868,9.4926],[80.484,9.4851],[80.4954,9.4785],[80.5121,9.4774],[80.5151,9.4851],[80.5171,9.479],[80.5307,9.4826],[80.5263,9.4785],[80.5574,9.4732],[80.5587,9.4626],[80.546,9.4568],[80.5554,9.4487],[80.5696,9.449],[80.5735,9.4435],[80.5907,9.4596],[80.6146,9.4551],[80.613,9.4453],[80.6074,9.4488],[80.6142,9.4434],[80.6096,9.4257],[80.5864,9.4083],[80.5862,9.3628],[80.5579,9.3783],[80.532,9.4053],[80.5293,9.378],[80.5163,9.3455],[80.4078,9.3395],[80.4065,9.308],[80.395,9.301],[80.3213,9.3085],[80.2794,9.2978],[80.2642,9.3029],[80.2337,9.2951],[80.2136,9.2767],[80.2181,9.2341],[80.1917,9.2373],[80.1496,9.2113],[80.1177,9.2086],[80.1207,9.2618],[80.1099,9.2765],[80.1218,9.3007],[80.0907,9.3265],[80.0704,9.3254],[80.0612,9.3335],[80.0632,9.3574],[80.0546,9.3649],[80.0537,9.3904],[80.1374,9.4312],[80.1563,9.4501],[80.1596,9.4474],[80.1657,9.4487],[80.1582,9.4532],[80.1815,9.4718],[80.1862,9.486],[80.1474,9.5354],[80.106,9.5685],[80.0521,9.599],[80.0618,9.611],[80.0629,9.6012],[80.0751,9.601],[80.0746,9.5962],[80.0923,9.593],[80.0999,9.5854],[80.1038,9.5896],[80.114,9.5746],[80.1263,9.5776],[80.1376,9.561],[80.1779,9.5399],[80.1954,9.546],[80.1985,9.571],[80.1996,9.5735],[80.1954,9.5415],[80.1935,9.5374],[80.199,9.5424],[80.2196,9.5274],[80.2207,9.5393],[80.2496,9.5151],[80.2613,9.5149],[80.2746,9.5049],[80.2804,9.4904],[80.2621,9.4993],[80.2546,9.4893],[80.2657,9.4812],[80.274,9.4793],[80.2776,9.4732],[80.2521,9.4751],[80.2504,9.4688],[80.2882,9.4551],[80.2871,9.4499],[80.2935,9.4585],[80.3121,9.4479],[80.3024,9.4579],[80.3168,9.4615],[80.3132,9.4657],[80.3307,9.4551],[80.3421,9.4729],[80.3524,9.4654],[80.3779,9.4804],[80.3929,9.4804],[80.3968,9.5043],[80.3907,9.5151],[80.3943,9.5101],[80.4057,9.5151],[80.406,9.5235],[80.3874,9.5201],[80.3921,9.5257],[80.3788,9.5318],[80.3869,9.5188],[80.3826,9.5168],[80.3507,9.5551],[80.326,9.5721],[80.3304,9.5638],[80.3226,9.5671],[80.2993,9.5899]]],[[[79.9849,9.3085],[79.9918,9.2887],[80.0051,9.2865],[79.999,9.2707],[79.9951,9.2818],[79.9749,9.2804],[79.9701,9.2876],[79.9701,9.2951],[79.9849,9.3085]]],[[[80.0746,9.3229],[80.0832,9.3218],[80.0904,9.3118],[80.079,9.3126],[80.0746,9.3229]]],[[[80.0568,9.3485],[80.0607,9.3321],[80.059,9.3299],[80.0526,9.3337],[80.0568,9.3485]]],[[[79.8843,9.4407],[79.8899,9.4396],[79.8887,9.4374],[79.8843,9.4407]]],[[[80.2865,9.4635],[80.2935,9.466],[80.2901,9.4596],[80.2865,9.4635]]],[[[80.2588,9.4674],[80.2649,9.4671],[80.2596,9.4657],[80.2588,9.4674]]],[[[80.2724,9.469],[80.2735,9.4674],[80.2665,9.4685],[80.2724,9.469]]],[[[80.3126,9.4707],[80.3163,9.4679],[80.3135,9.4671],[80.3126,9.4707]]],[[[80.2918,9.471],[80.2937,9.4701],[80.2899,9.4693],[80.2918,9.471]]],[[[80.0127,9.4849],[80.0179,9.4768],[80.0113,9.466],[80.0043,9.4812],[80.0127,9.4849]]],[[[80.5082,9.4838],[80.5126,9.4838],[80.5126,9.4829],[80.5082,9.4838]]],[[[80.2651,9.4843],[80.269,9.4849],[80.2663,9.4829],[80.2651,9.4843]]],[[[80.489,9.4926],[80.4946,9.4907],[80.4946,9.4893],[80.489,9.4926]]],[[[80.4968,9.494],[80.4999,9.4971],[80.511,9.491],[80.4968,9.494]]],[[[80.4915,9.4987],[80.4946,9.4974],[80.4912,9.4957],[80.4915,9.4987]]],[[[80.2768,9.5001],[80.2813,9.499],[80.281,9.4982],[80.2768,9.5001]]],[[[80.4707,9.5065],[80.4768,9.5035],[80.4707,9.5057],[80.4707,9.5065]]],[[[80.4615,9.5085],[80.466,9.5065],[80.4615,9.5065],[80.4615,9.5085]]],[[[80.4701,9.5115],[80.4726,9.5093],[80.4693,9.5104],[80.4701,9.5115]]],[[[80.4737,9.5126],[80.4746,9.5141],[80.4754,9.5124],[80.4737,9.5126]]],[[[80.4754,9.5165],[80.4779,9.5146],[80.4754,9.5146],[80.4754,9.5165]]],[[[80.4565,9.5199],[80.4587,9.5179],[80.4565,9.5182],[80.4565,9.5199]]],[[[80.4399,9.5249],[80.4407,9.5218],[80.4382,9.5229],[80.4399,9.5249]]],[[[80.4465,9.5262],[80.4468,9.5221],[80.4557,9.5199],[80.4457,9.5182],[80.4465,9.5262]]],[[[80.4149,9.5268],[80.4118,9.5246],[80.4107,9.5257],[80.4149,9.5268]]],[[[80.4368,9.5251],[80.4404,9.5257],[80.4374,9.5243],[80.4368,9.5251]]],[[[80.4071,9.5307],[80.4104,9.5299],[80.4068,9.5282],[80.4071,9.5307]]],[[[80.4482,9.5315],[80.4524,9.5315],[80.4479,9.5276],[80.4482,9.5315]]],[[[80.2243,9.5379],[80.2268,9.5382],[80.2271,9.536],[80.2243,9.5379]]],[[[80.2943,9.5907],[80.296,9.5874],[80.2951,9.5874],[80.2943,9.5907]]],[[[80.089,9.5976],[80.1043,9.5949],[80.1046,9.594],[80.089,9.5976]]],[[[80.0676,9.6099],[80.0768,9.6032],[80.0871,9.5988],[80.0718,9.6049],[80.0676,9.6099]]],[[[80.0774,9.6107],[80.0846,9.6096],[80.0849,9.609],[80.0774,9.6107]]]]}},{"type":"Feature","properties":{"district_id":"KAL","district":"Kalutara","constituent_admin_districts":["Kalutara"],"source":"thejeshgn/srilanka electoral_districts_map (derived from GADM 2.7 LKA_adm1), CC-BY, simplified"},"geometry":{"type":"MultiPolygon","coordinates":[[[[79.9676,6.4629],[79.9704,6.4635],[79.9701,6.4618],[79.9676,6.4629]]],[[[80.1745,6.8193],[80.1821,6.7963],[80.1919,6.7829],[80.1921,6.7605],[80.2056,6.7329],[80.1987,6.7279],[80.2153,6.6917],[80.2492,6.6582],[80.255,6.6268],[80.282,6.6176],[80.3033,6.5952],[80.3133,6.5703],[80.2943,6.5622],[80.3798,6.4359],[80.3819,6.4259],[80.3681,6.4272],[80.3123,6.3964],[80.2906,6.392],[80.2909,6.3702],[80.3021,6.3404],[80.2984,6.3249],[80.2387,6.3769],[80.216,6.3798],[80.2129,6.3715],[80.2074,6.3722],[80.2077,6.3591],[80.1915,6.3542],[80.1548,6.3667],[80.1314,6.3658],[80.0885,6.401],[80.0712,6.3969],[80.0622,6.408],[80.0289,6.4198],[80.0153,6.436],[79.9973,6.427],[79.9743,6.4601],[79.9735,6.4707],[79.9826,6.4785],[79.976,6.5049],[79.9793,6.5176],[79.9321,6.6493],[79.9007,6.7135],[79.9036,6.7242],[79.886,6.7726],[79.8918,6.7762],[79.9122,6.7651],[79.92,6.7488],[79.9448,6.7483],[79.9513,6.7626],[79.9794,6.7582],[80.0041,6.7709],[80.0366,6.806],[80.0623,6.7902],[80.0828,6.8172],[80.0979,6.8037],[80.1092,6.7721],[80.1203,6.7706],[80.1246,6.7823],[80.1166,6.8061],[80.1496,6.8249],[80.1642,6.8149],[80.1745,6.8193]]]]}},{"type":"Feature","properties":{"district_id":"KAN","district":"Kandy","constituent_admin_districts":["Kandy"],"source":"thejeshgn/srilanka electoral_districts_map (derived from GADM 2.7 LKA_adm1), CC-BY, simplified"},"geometry":{"type":"Polygon","coordinates":[[[80.9743,7.4882],[80.9752,7.427],[80.9696,7.4121],[80.9826,7.3948],[80.9765,7.3618],[81.0165,7.2334],[81.0088,7.2172],[80.9833,7.2126],[80.9729,7.1963],[80.9426,7.202],[80.8993,7.1992],[80.8839,7.1808],[80.8804,7.1945],[80.8514,7.1902],[80.805,7.2016],[80.8027,7.2251],[80.7514,7.2732],[80.753,7.2512],[80.7667,7.2368],[80.7709,7.1983],[80.7391,7.1618],[80.7294,7.1581],[80.6889,7.0927],[80.6486,7.1029],[80.6378,7.0993],[80.6271,7.0793],[80.5779,7.0744],[80.5716,7.082],[80.5611,7.0768],[80.5543,7.0816],[80.5416,7.0741],[80.5393,7.0619],[80.5521,7.065],[80.5623,7.0396],[80.6028,6.9945],[80.5937,6.985],[80.5895,6.9649],[80.5777,6.9594],[80.578,6.9444],[80.5531,6.9405],[80.5401,6.962],[80.5159,6.9822],[80.4975,7.0261],[80.4726,7.0374],[80.4612,7.0306],[80.4632,7.056],[80.4713,7.0644],[80.4647,7.0654],[80.4542,7.1013],[80.4453,7.1113],[80.4558,7.1221],[80.5005,7.128],[80.5103,7.149],[80.5346,7.1504],[80.5293,7.1617],[80.5481,7.1694],[80.5129,7.2089],[80.5224,7.2203],[80.5188,7.2409],[80.504,7.258],[80.4795,7.2636],[80.4809,7.2855],[80.4265,7.3323],[80.4247,7.3604],[80.4598,7.3524],[80.4516,7.3626],[80.4725,7.395],[80.4625,7.4122],[80.4718,7.4137],[80.4982,7.3922],[80.5131,7.3881],[80.5197,7.4015],[80.5167,7.4139],[80.5293,7.4136],[80.5307,7.4202],[80.5565,7.4191],[80.5466,7.4366],[80.5492,7.4431],[80.5418,7.4491],[80.5645,7.4578],[80.5862,7.4295],[80.654,7.3846],[80.6984,7.387],[80.7069,7.397],[80.7121,7.4261],[80.7017,7.4592],[80.7278,7.4746],[80.7533,7.4486],[80.7903,7.4278],[80.8084,7.4401],[80.8069,7.4476],[80.8204,7.4599],[80.8397,7.4631],[80.8501,7.4725],[80.8627,7.4748],[80.878,7.4655],[80.898,7.4748],[80.9065,7.4586],[80.9095,7.4649],[80.9182,7.4614],[80.9333,7.4893],[80.9743,7.4882]]]}},{"type":"Feature","properties":{"district_id":"KEG","district":"Kegalle","constituent_admin_districts":["Kegalle"],"source":"thejeshgn/srilanka electoral_districts_map (derived from GADM 2.7 LKA_adm1), CC-BY, simplified"},"geometry":{"type":"Polygon","coordinates":[[[80.4221,7.3573],[80.4313,7.3264],[80.455,7.313],[80.4814,7.2848],[80.476,7.2697],[80.4795,7.2636],[80.504,7.258],[80.5188,7.2409],[80.5224,7.2203],[80.5129,7.2089],[80.5481,7.1694],[80.5293,7.1617],[80.5346,7.1504],[80.5103,7.149],[80.5005,7.128],[80.4558,7.1221],[80.4454,7.113],[80.4647,7.0654],[80.4713,7.0636],[80.4604,7.0439],[80.4674,7.0171],[80.4502,6.9993],[80.4333,6.9934],[80.4456,6.9654],[80.4376,6.9558],[80.433,6.9136],[80.4939,6.8911],[80.5,6.8581],[80.5114,6.8475],[80.4984,6.8322],[80.4516,6.8331],[80.432,6.8481],[80.424,6.8398],[80.4,6.8597],[80.3889,6.85],[80.3787,6.8544],[80.3574,6.8497],[80.3405,6.8301],[80.3287,6.8363],[80.3108,6.8623],[80.2849,6.8555],[80.2822,6.8701],[80.2688,6.8743],[80.2508,6.9015],[80.241,6.9075],[80.2332,6.9031],[80.2306,6.9242],[80.224,6.9311],[80.2101,6.9176],[80.208,6.9375],[80.2198,6.9359],[80.2235,6.9419],[80.2185,6.9729],[80.2077,6.9787],[80.1797,6.9772],[80.1825,6.9947],[80.1642,7.0556],[80.1853,7.1009],[80.1939,7.1004],[80.2082,7.1305],[80.174,7.1335],[80.162,7.1234],[80.1536,7.1478],[80.1537,7.1757],[80.1453,7.1873],[80.1569,7.1826],[80.1623,7.1921],[80.184,7.1932],[80.1836,7.2338],[80.1985,7.2446],[80.1936,7.2572],[80.2024,7.257],[80.2136,7.2736],[80.2536,7.3022],[80.2759,7.3146],[80.3154,7.3187],[80.3211,7.3264],[80.3404,7.321],[80.3491,7.3397],[80.3444,7.3495],[80.3552,7.3605],[80.3468,7.3867],[80.3921,7.3964],[80.4115,7.3828],[80.4169,7.359],[80.4221,7.3573]]]}},{"type":"Feature","properties":{"district_id":"KUR","district":"Kurunegala","constituent_admin_districts":["Kurunegala"],"source":"thejeshgn/srilanka electoral_districts_map (derived from GADM 2.7 LKA_adm1), CC-BY, simplified"},"geometry":{"type":"Polygon","coordinates":[[[80.4991,7.8151],[80.4944,7.8083],[80.496,7.783],[80.5031,7.7737],[80.5173,7.7727],[80.5193,7.7603],[80.5355,7.7391],[80.5358,7.7087],[80.5474,7.7061],[80.5525,7.67],[80.545,7.6609],[80.5489,7.6419],[80.5645,7.6303],[80.5758,7.6074],[80.5685,7.5952],[80.5737,7.5756],[80.5627,7.5725],[80.5516,7.5505],[80.5517,7.5383],[80.5648,7.5227],[80.5625,7.5143],[80.5689,7.5153],[80.573,7.5076],[80.5751,7.4768],[80.5641,7.4691],[80.5656,7.4576],[80.5424,7.451],[80.5565,7.4191],[80.5307,7.4202],[80.5293,7.4136],[80.5167,7.4139],[80.5182,7.391],[80.5091,7.3872],[80.4816,7.4087],[80.4625,7.4122],[80.4725,7.395],[80.4516,7.3626],[80.458,7.3515],[80.4469,7.3587],[80.4383,7.3543],[80.4169,7.359],[80.4115,7.3828],[80.3921,7.3964],[80.3468,7.3867],[80.3552,7.3605],[80.3444,7.3495],[80.3491,7.3397],[80.3404,7.321],[80.3255,7.3271],[80.3154,7.3187],[80.267,7.3109],[80.2136,7.2736],[80.2014,7.2567],[80.1833,7.2598],[80.1682,7.2829],[80.1449,7.3001],[80.1482,7.3115],[80.1243,7.3306],[80.0588,7.284],[80.0525,7.2846],[80.0447,7.2998],[80.0288,7.3017],[80.0222,7.311],[80.0255,7.3162],[80.0133,7.3134],[80.0052,7.3192],[79.9757,7.2915],[79.9551,7.2923],[79.9495,7.2875],[79.9537,7.2793],[79.9413,7.2745],[79.9377,7.3468],[79.9038,7.5117],[79.9004,7.5826],[79.9066,7.5947],[79.9053,7.6201],[79.9199,7.6343],[79.9224,7.6465],[79.9333,7.6486],[79.9224,7.6579],[79.9303,7.6644],[79.9306,7.6762],[79.9474,7.6818],[79.9493,7.6759],[79.9603,7.6747],[79.9643,7.6862],[79.9545,7.6943],[79.9405,7.6945],[79.955,7.7019],[79.9561,7.7195],[79.9748,7.722],[79.9806,7.7327],[80.0005,7.7442],[79.9934,7.7605],[80.0016,7.777],[79.9951,7.796],[79.9978,7.8105],[80.0133,7.8155],[80.0059,7.8295],[80.0378,7.8454],[80.0416,7.8675],[80.0652,7.8732],[80.0652,7.8867],[80.0733,7.8915],[80.0714,7.9144],[80.0937,7.9217],[80.0985,7.9148],[80.1,7.9256],[80.1074,7.9291],[80.1075,7.9477],[80.1198,7.9469],[80.1312,7.9342],[80.1485,7.9429],[80.1329,7.9679],[80.1499,7.9986],[80.1435,8.0063],[80.1533,8.0674],[80.1275,8.08],[80.115,8.0988],[80.1079,8.15],[80.0996,8.1677],[80.1025,8.1962],[80.1252,8.1791],[80.1825,8.1619],[80.1885,8.1504],[80.2052,8.1526],[80.2118,8.143],[80.2487,8.1354],[80.2657,8.1153],[80.309,8.1174],[80.3711,8.0575],[80.3928,8.0488],[80.4055,8.0562],[80.4192,8.0452],[80.4154,8.0071],[80.4272,7.9625],[80.4181,7.9512],[80.4302,7.9489],[80.4485,7.9563],[80.4604,7.9473],[80.4631,7.9162],[80.4794,7.8802],[80.4681,7.8501],[80.4776,7.8432],[80.4825,7.8226],[80.4991,7.8151]]]}},{"type":"Feature","properties":{"district_id":"VAN","district":"Vanni (Mannar/Vavuniya/Mullaitivu)","constituent_admin_districts":["Mannar","Vavuniya","Mullaitivu"],"source":"thejeshgn/srilanka electoral_districts_map (derived from GADM 2.7 LKA_adm1), CC-BY, simplified"},"geometry":{"type":"MultiPolygon","coordinates":[[[[79.919,8.8062],[79.9176,8.8043],[79.9174,8.8082],[79.919,8.8062]]],[[[79.9054,8.9746],[79.9088,8.9729],[79.906,8.9721],[79.9054,8.9746]]],[[[79.641,9.0707],[79.6426,9.069],[79.6396,9.0693],[79.641,9.0707]]],[[[79.6454,9.0732],[79.6474,9.0707],[79.6443,9.0701],[79.6454,9.0732]]],[[[79.6485,9.0729],[79.6504,9.0732],[79.6518,9.0718],[79.6485,9.0729]]],[[[79.6757,9.0749],[79.6799,9.0729],[79.6743,9.0729],[79.6757,9.0749]]],[[[79.9204,8.8054],[79.9226,8.8118],[79.9157,8.8135],[79.9201,8.8429],[79.9268,8.8668],[79.9285,8.8593],[79.9351,8.8743],[79.9329,8.8793],[79.9282,8.8687],[79.929,8.8949],[79.8932,8.9504],[79.9099,8.9312],[79.9134,8.9415],[79.9021,8.9415],[79.9049,8.9479],[79.9013,8.9468],[79.8913,8.9543],[79.8893,8.9574],[79.8949,8.9576],[79.8938,8.9629],[79.8846,8.9649],[79.8607,8.9963],[79.8165,9.0326],[79.7462,9.0688],[79.6957,9.0787],[79.6974,9.0887],[79.6907,9.0893],[79.6949,9.0974],[79.7296,9.1083],[79.761,9.1049],[79.8599,9.0743],[79.9276,9.0107],[79.9171,9.0101],[79.9018,9.0232],[79.8726,9.0335],[79.8776,9.019],[79.9001,8.9965],[79.9274,8.9818],[79.9265,8.976],[79.9021,8.9774],[79.9049,8.9712],[79.8957,8.9685],[79.8962,8.9607],[79.9082,8.9593],[79.9049,8.9485],[79.9193,8.9615],[79.9235,8.9474],[79.9454,8.9468],[79.9682,8.9699],[79.9863,8.9754],[79.991,8.9954],[80.0151,9.0126],[80.0404,9.0163],[80.0685,9.0654],[80.0715,9.0924],[80.0776,9.0985],[80.076,9.1265],[80.1015,9.1632],[80.1062,9.199],[80.116,9.209],[80.1496,9.2113],[80.1917,9.2373],[80.2181,9.2341],[80.2136,9.2767],[80.2337,9.2951],[80.2642,9.3029],[80.2794,9.2978],[80.3213,9.3085],[80.395,9.301],[80.4065,9.308],[80.4078,9.3395],[80.5163,9.3455],[80.5293,9.378],[80.532,9.4053],[80.5579,9.3783],[80.5862,9.3628],[80.5864,9.4083],[80.6057,9.4196],[80.6142,9.4434],[80.6074,9.4488],[80.613,9.4453],[80.6146,9.4546],[80.6218,9.4579],[80.6682,9.4213],[80.6629,9.4071],[80.6835,9.3854],[80.7079,9.3765],[80.6751,9.4062],[80.6715,9.4168],[80.8146,9.289],[80.8432,9.2335],[80.8637,9.1668],[80.8829,9.1293],[80.8768,9.1268],[80.8707,9.1418],[80.8576,9.1438],[80.8646,9.1407],[80.8632,9.1301],[80.8721,9.1187],[80.8651,9.1185],[80.8626,9.1082],[80.8771,9.1018],[80.8735,9.1099],[80.8846,9.1257],[80.964,8.991],[80.9507,8.9879],[80.926,9.0229],[80.8926,9.0499],[80.891,9.0385],[80.8746,9.0279],[80.9071,8.9987],[80.9165,9.0129],[80.9232,9.009],[80.9149,8.9901],[80.9193,8.9924],[80.924,8.9913],[80.9249,8.9932],[80.9282,8.9926],[80.919,8.9842],[80.8884,8.9802],[80.8873,8.9731],[80.8679,8.9598],[80.8329,8.9615],[80.827,8.9557],[80.7747,8.947],[80.7621,8.9361],[80.753,8.9052],[80.7125,8.8988],[80.6682,8.8716],[80.5954,8.8697],[80.593,8.8469],[80.6271,8.8371],[80.6372,8.8154],[80.6513,8.8034],[80.6514,8.7904],[80.6339,8.7799],[80.6185,8.7526],[80.6012,8.7444],[80.5893,8.7221],[80.5736,8.7167],[80.57,8.7004],[80.5302,8.6728],[80.5209,8.6594],[80.5067,8.6584],[80.4527,8.6923],[80.4242,8.674],[80.4219,8.6621],[80.4105,8.6595],[80.4002,8.635],[80.381,8.6218],[80.38,8.5838],[80.3691,8.5748],[80.3521,8.5731],[80.3376,8.546],[80.2885,8.5606],[80.2745,8.611],[80.2597,8.618],[80.2515,8.6154],[80.2372,8.629],[80.2354,8.6804],[80.1138,8.6494],[80.0801,8.6536],[80.0444,8.6732],[80.0553,8.637],[80.0504,8.5219],[80.0336,8.5244],[79.9778,8.5538],[79.9347,8.5582],[79.9196,8.5704],[79.9187,8.589],[79.9465,8.6296],[79.9429,8.6537],[79.9524,8.6785],[79.9496,8.709],[79.9599,8.7262],[79.9321,8.786],[79.9179,8.8013],[79.929,8.8035],[79.9204,8.8054]]],[[[80.8693,9.1107],[80.8718,9.1118],[80.8724,9.1085],[80.8693,9.1107]]],[[[80.8715,9.1146],[80.876,9.1143],[80.8715,9.1126],[80.8715,9.1146]]],[[[80.874,9.1185],[80.8763,9.1168],[80.8732,9.1171],[80.874,9.1185]]],[[[80.8807,9.1251],[80.8793,9.1201],[80.8732,9.1196],[80.8737,9.1224],[80.8807,9.1251]]]]}},{"type":"Feature","properties":{"district_id":"MTL","district":"Matale","constituent_admin_districts":["Matale"],"source":"thejeshgn/srilanka electoral_districts_map (derived from GADM 2.7 LKA_adm1), CC-BY, simplified"},"geometry":{"type":"Polygon","coordinates":[[[80.9891,7.7217],[80.9927,7.7006],[80.9875,7.6888],[80.9947,7.6615],[80.9817,7.6432],[80.9778,7.6242],[80.9717,7.5666],[80.9743,7.4882],[80.9333,7.4893],[80.9182,7.4614],[80.9095,7.4649],[80.9065,7.4586],[80.898,7.4748],[80.878,7.4655],[80.8627,7.4748],[80.8501,7.4725],[80.8397,7.4631],[80.8204,7.4599],[80.8069,7.4476],[80.8084,7.4401],[80.7903,7.4278],[80.7533,7.4486],[80.7278,7.4746],[80.7011,7.4573],[80.7121,7.4261],[80.706,7.3952],[80.6984,7.387],[80.654,7.3846],[80.5862,7.4295],[80.5731,7.4405],[80.5719,7.4537],[80.5656,7.4576],[80.5641,7.4691],[80.5751,7.4768],[80.573,7.5076],[80.5689,7.5153],[80.5625,7.5143],[80.5648,7.5227],[80.5517,7.5383],[80.5516,7.5505],[80.5627,7.5725],[80.5737,7.5756],[80.5685,7.5952],[80.5758,7.6074],[80.5645,7.6303],[80.5489,7.6419],[80.545,7.6609],[80.5525,7.67],[80.5474,7.7061],[80.5358,7.7087],[80.5363,7.7372],[80.5193,7.7603],[80.5173,7.7727],[80.5031,7.7737],[80.497,7.7812],[80.4944,7.8083],[80.4999,7.8261],[80.5244,7.8273],[80.5652,7.8489],[80.5751,7.868],[80.5902,7.8672],[80.5931,7.8581],[80.6007,7.8558],[80.6228,7.8686],[80.6229,7.8826],[80.639,7.8885],[80.6324,7.9002],[80.6541,7.9152],[80.6529,7.9467],[80.6587,7.9601],[80.6685,7.9634],[80.6823,7.9567],[80.7059,7.9918],[80.7561,8.0124],[80.7795,7.9948],[80.7784,7.9682],[80.7886,7.9621],[80.7985,7.9606],[80.7986,7.9759],[80.814,7.9835],[80.8256,7.9713],[80.84,7.9722],[80.8533,7.9627],[80.834,7.9542],[80.8196,7.9245],[80.811,7.852],[80.8024,7.822],[80.7935,7.8173],[80.7956,7.8049],[80.7688,7.8023],[80.7612,7.7922],[80.7659,7.7868],[80.7638,7.734],[80.7745,7.7002],[80.7698,7.6905],[80.7656,7.6952],[80.761,7.6956],[80.7788,7.6779],[80.8048,7.6796],[80.8093,7.6717],[80.8369,7.6813],[80.8531,7.7011],[80.8555,7.6909],[80.8703,7.6895],[80.8769,7.6797],[80.8836,7.7151],[80.9065,7.7159],[80.9279,7.7083],[80.9891,7.7217]]]}},{"type":"Feature","properties":{"district_id":"MTR","district":"Matara","constituent_admin_districts":["Matara"],"source":"thejeshgn/srilanka electoral_districts_map (derived from GADM 2.7 LKA_adm1), CC-BY, simplified"},"geometry":{"type":"MultiPolygon","coordinates":[[[[80.7196,5.9604],[80.7226,5.9607],[80.7226,5.9596],[80.7196,5.9604]]],[[[80.6701,6.306],[80.6567,6.3026],[80.6636,6.2873],[80.6527,6.271],[80.6623,6.2615],[80.6385,6.2526],[80.6083,6.1996],[80.6115,6.1885],[80.6288,6.1813],[80.6371,6.17],[80.6602,6.1736],[80.6623,6.1664],[80.6466,6.1408],[80.6481,6.1334],[80.6605,6.1285],[80.6638,6.1192],[80.689,6.1239],[80.6956,6.1175],[80.6802,6.1021],[80.682,6.0895],[80.6937,6.0757],[80.6921,6.0632],[80.6615,6.0524],[80.655,6.0431],[80.6638,6.0389],[80.6666,6.0253],[80.6934,6.0256],[80.6989,6.0173],[80.6869,6.0086],[80.6881,5.991],[80.7029,5.9932],[80.722,5.9816],[80.7188,5.9612],[80.691,5.9637],[80.6868,5.9585],[80.649,5.9551],[80.6401,5.9443],[80.6229,5.946],[80.6199,5.9326],[80.5946,5.9265],[80.591,5.9185],[80.5837,5.9201],[80.5774,5.9354],[80.5385,5.9415],[80.5415,5.9462],[80.5226,5.9354],[80.4718,5.9376],[80.4587,5.9451],[80.454,5.9412],[80.4451,5.9474],[80.4524,5.9493],[80.4549,5.9635],[80.4376,5.9732],[80.4268,5.9713],[80.4176,5.9551],[80.3849,5.9646],[80.3819,5.9837],[80.3901,6.0072],[80.4233,6.0187],[80.4121,6.0323],[80.3916,6.0339],[80.3893,6.0546],[80.4047,6.0529],[80.4108,6.0691],[80.4367,6.0864],[80.4389,6.0937],[80.4206,6.1106],[80.4061,6.114],[80.4004,6.1284],[80.3862,6.1379],[80.3847,6.1652],[80.3961,6.1716],[80.3879,6.1862],[80.4031,6.1904],[80.3834,6.221],[80.4267,6.2142],[80.44,6.226],[80.4355,6.2366],[80.4413,6.2405],[80.4352,6.2483],[80.4392,6.2546],[80.4219,6.2727],[80.4132,6.2929],[80.387,6.3094],[80.3783,6.3269],[80.4055,6.3333],[80.4461,6.3013],[80.4538,6.2881],[80.4751,6.2804],[80.4857,6.2845],[80.4957,6.2996],[80.4855,6.3213],[80.4649,6.3379],[80.461,6.3523],[80.4815,6.3665],[80.5337,6.3743],[80.5338,6.3882],[80.5447,6.3891],[80.546,6.3951],[80.5549,6.3895],[80.6188,6.3963],[80.6175,6.3711],[80.6065,6.3597],[80.6112,6.3459],[80.6613,6.3538],[80.6634,6.3398],[80.6572,6.3372],[80.6752,6.3218],[80.6697,6.3187],[80.6701,6.306]]]]}},{"type":"Feature","properties":{"district_id":"MON","district":"Monaragala","constituent_admin_districts":["Monaragala"],"source":"thejeshgn/srilanka electoral_districts_map (derived from GADM 2.7 LKA_adm1), CC-BY, simplified"},"geometry":{"type":"Polygon","coordinates":[[[81.6081,6.5788],[81.6004,6.5617],[81.5887,6.5608],[81.5818,6.5509],[81.5646,6.5542],[81.5469,6.5365],[81.5324,6.5355],[81.524,6.5197],[81.4812,6.4947],[81.4793,6.4731],[81.4862,6.4643],[81.4762,6.4488],[81.4798,6.4193],[81.4734,6.4089],[81.4397,6.4199],[81.4008,6.4064],[81.3933,6.4147],[81.384,6.3985],[81.3721,6.3976],[81.3673,6.3906],[81.2784,6.3691],[81.2735,6.3551],[81.2535,6.3408],[81.2244,6.3455],[81.2244,6.3578],[81.211,6.3672],[81.1843,6.4055],[81.1569,6.3926],[81.1446,6.3975],[81.1369,6.4211],[81.1012,6.4183],[81.0709,6.4238],[81.0616,6.4113],[81.0491,6.4218],[81.0494,6.4068],[81.037,6.3913],[81.0132,6.396],[81.0083,6.3878],[81.0075,6.3692],[81.0226,6.3589],[81.0182,6.3447],[80.9679,6.3254],[80.9199,6.2958],[80.903,6.3439],[80.8654,6.357],[80.8625,6.3698],[80.8388,6.4017],[80.8444,6.407],[80.838,6.427],[80.8428,6.4339],[80.8362,6.4405],[80.8431,6.4561],[80.8281,6.4917],[80.8636,6.5497],[80.8608,6.5604],[80.8658,6.5788],[80.8725,6.5819],[80.8696,6.5928],[80.8766,6.5939],[80.8756,6.6106],[80.904,6.6395],[80.9131,6.6724],[80.9294,6.691],[80.9401,6.6904],[80.9396,6.6787],[80.9519,6.6719],[80.9534,6.6552],[80.9689,6.6545],[80.9769,6.6443],[80.979,6.6171],[80.9909,6.6206],[80.9998,6.6143],[80.9956,6.5751],[81.0227,6.5422],[81.0251,6.5732],[81.0338,6.5835],[81.0408,6.5906],[81.0624,6.5785],[81.0622,6.5992],[81.0764,6.6112],[81.0864,6.6104],[81.0648,6.6332],[81.061,6.6497],[81.0647,6.6998],[81.078,6.7073],[81.085,6.728],[81.0711,6.7375],[81.056,6.7345],[81.0515,6.739],[81.0648,6.7618],[81.0611,6.7828],[81.0658,6.8137],[81.08,6.8141],[81.0887,6.8074],[81.0989,6.8125],[81.0966,6.8279],[81.1316,6.8333],[81.1382,6.8405],[81.118,6.862],[81.11,6.8632],[81.1126,6.8726],[81.1592,6.8906],[81.177,6.9049],[81.1828,6.9288],[81.187,6.9213],[81.2043,6.9216],[81.2067,6.9398],[81.2275,6.9474],[81.2203,6.9602],[81.2343,6.9657],[81.2318,6.9886],[81.2462,7.0223],[81.2308,7.0814],[81.2191,7.0806],[81.2128,7.0967],[81.1687,7.0841],[81.159,7.1142],[81.1225,7.1535],[81.1242,7.1654],[81.1404,7.1883],[81.1521,7.1948],[81.1644,7.1735],[81.1853,7.1725],[81.1887,7.1911],[81.2069,7.2015],[81.2359,7.2395],[81.2315,7.2676],[81.2705,7.2769],[81.2774,7.2554],[81.2866,7.2486],[81.2855,7.2406],[81.3051,7.2574],[81.323,7.2631],[81.3207,7.3375],[81.3445,7.3356],[81.367,7.3435],[81.3652,7.3575],[81.3745,7.3585],[81.3864,7.3709],[81.374,7.3965],[81.375,7.4104],[81.3888,7.4079],[81.4057,7.4167],[81.4075,7.4331],[81.4219,7.4358],[81.4564,7.4584],[81.4791,7.454],[81.462,7.4304],[81.4771,7.4217],[81.4724,7.393],[81.4908,7.3378],[81.479,7.3247],[81.5188,7.2903],[81.5276,7.2536],[81.5231,7.2429],[81.534,7.24],[81.5531,7.2176],[81.5224,7.1976],[81.5001,7.1548],[81.5134,7.1363],[81.5154,7.103],[81.5313,7.091],[81.5365,7.0948],[81.5961,7.0696],[81.6142,7.0685],[81.6192,7.0492],[81.6072,7.0259],[81.6209,6.9984],[81.6178,6.9791],[81.6372,6.96],[81.6287,6.913],[81.6081,6.5788]]]}},{"type":"Feature","properties":{"district_id":"NUW","district":"Nuwara Eliya","constituent_admin_districts":["Nuwara Eliya"],"source":"thejeshgn/srilanka electoral_districts_map (derived from GADM 2.7 LKA_adm1), CC-BY, simplified"},"geometry":{"type":"Polygon","coordinates":[[[80.947,7.2004],[80.9437,7.1935],[80.9625,7.1571],[80.9619,7.1421],[80.9531,7.1451],[80.9511,7.1298],[80.9659,7.1218],[80.9525,7.1014],[80.9663,7.0777],[80.9304,7.0382],[80.9203,6.9902],[80.8997,6.9773],[80.8761,6.9737],[80.8634,6.9782],[80.8356,6.9544],[80.828,6.9259],[80.8135,6.9175],[80.783,6.9216],[80.7776,6.9154],[80.7791,6.9104],[80.8112,6.9017],[80.813,6.8798],[80.8252,6.8765],[80.8217,6.8621],[80.8387,6.8451],[80.8334,6.8341],[80.8152,6.8293],[80.8193,6.8188],[80.8384,6.8119],[80.8275,6.7938],[80.8147,6.7953],[80.7893,6.774],[80.7745,6.7784],[80.7448,6.7583],[80.7324,6.7635],[80.7057,6.755],[80.6606,6.762],[80.6538,6.7512],[80.5727,6.7639],[80.5438,6.7757],[80.5274,6.768],[80.4958,6.7826],[80.4887,6.7978],[80.5023,6.8095],[80.4915,6.8191],[80.5114,6.8475],[80.4949,6.8717],[80.498,6.887],[80.433,6.9136],[80.4376,6.9558],[80.4456,6.9654],[80.4333,6.9934],[80.4502,6.9993],[80.4674,7.0171],[80.4634,7.0284],[80.4718,7.0369],[80.4981,7.0255],[80.5159,6.9822],[80.5401,6.962],[80.5531,6.9405],[80.578,6.9444],[80.5777,6.9594],[80.5895,6.9649],[80.5937,6.985],[80.6028,6.9945],[80.5623,7.0396],[80.5521,7.065],[80.5393,7.0619],[80.5412,7.0734],[80.5543,7.0816],[80.5611,7.0768],[80.5716,7.082],[80.5779,7.0744],[80.6271,7.0793],[80.6378,7.0993],[80.6486,7.1029],[80.6889,7.0927],[80.7294,7.1581],[80.7391,7.1618],[80.7709,7.1983],[80.7667,7.2368],[80.7528,7.2517],[80.7522,7.2736],[80.8027,7.2251],[80.8024,7.2054],[80.8104,7.1984],[80.8514,7.1902],[80.8796,7.1947],[80.8858,7.1808],[80.8993,7.1992],[80.947,7.2004]]]}},{"type":"Feature","properties":{"district_id":"POL","district":"Polonnaruwa","constituent_admin_districts":["Polonnaruwa"],"source":"thejeshgn/srilanka electoral_districts_map (derived from GADM 2.7 LKA_adm1), CC-BY, simplified"},"geometry":{"type":"Polygon","coordinates":[[[81.31,8.2527],[81.3141,8.2398],[81.3063,8.0295],[81.34,7.9571],[81.3399,7.9375],[81.3079,7.9375],[81.2892,7.9466],[81.2747,7.9368],[81.253,7.9363],[81.2368,7.9198],[81.2369,7.8887],[81.2277,7.8658],[81.2327,7.8435],[81.2249,7.8235],[81.2269,7.781],[81.2414,7.7387],[81.2337,7.722],[81.2394,7.7134],[81.2394,7.6798],[81.2226,7.6721],[81.2179,7.6481],[81.1838,7.6673],[81.1195,7.6888],[81.0957,7.7245],[81.0687,7.7308],[81.0493,7.7188],[80.9891,7.7217],[80.9279,7.7083],[80.9065,7.7159],[80.8836,7.7151],[80.8769,7.6797],[80.8703,7.6895],[80.8555,7.6909],[80.8531,7.7011],[80.8369,7.6813],[80.8093,7.6717],[80.8048,7.6796],[80.7803,7.6775],[80.7708,7.6838],[80.761,7.6956],[80.7698,7.6905],[80.7745,7.7002],[80.7638,7.734],[80.7659,7.7868],[80.7612,7.7922],[80.7688,7.8023],[80.7956,7.8049],[80.7935,7.8173],[80.8024,7.822],[80.811,7.852],[80.8196,7.9245],[80.834,7.9542],[80.8533,7.9627],[80.84,7.9722],[80.8256,7.9713],[80.8148,7.9835],[80.7986,7.9759],[80.7985,7.9606],[80.7789,7.9675],[80.7795,7.9948],[80.7723,7.9956],[80.7494,8.0209],[80.777,8.0659],[80.7587,8.0686],[80.7594,8.1505],[80.786,8.2057],[80.7878,8.2312],[80.8044,8.2785],[80.8991,8.2809],[80.9114,8.3264],[80.9343,8.3449],[80.952,8.3229],[80.9623,8.3237],[80.9813,8.3111],[80.9888,8.2731],[81.0363,8.2789],[81.0501,8.2722],[81.0776,8.2716],[81.1056,8.256],[81.1241,8.263],[81.1394,8.2609],[81.1662,8.2346],[81.1869,8.2274],[81.1994,8.2314],[81.2062,8.2156],[81.2045,8.1839],[81.2134,8.1795],[81.2069,8.163],[81.1919,8.1525],[81.208,8.1488],[81.2326,8.1565],[81.2345,8.1741],[81.2429,8.1791],[81.2376,8.1943],[81.2514,8.21],[81.2503,8.2261],[81.269,8.2348],[81.2658,8.241],[81.2726,8.2412],[81.2881,8.2611],[81.31,8.2527]]]}},{"type":"Feature","properties":{"district_id":"PUT","district":"Puttalam","constituent_admin_districts":["Puttalam"],"source":"thejeshgn/srilanka electoral_districts_map (derived from GADM 2.7 LKA_adm1), CC-BY, simplified"},"geometry":{"type":"MultiPolygon","coordinates":[[[[79.8196,7.9854],[79.8215,7.9851],[79.8221,7.9832],[79.8196,7.9854]]],[[[79.8301,8.0007],[79.8288,8.0004],[79.8301,8.0024],[79.8301,8.0007]]],[[[79.7785,8.0718],[79.7807,8.0693],[79.7785,8.0693],[79.7785,8.0718]]],[[[79.7374,8.126],[79.7396,8.1246],[79.7374,8.1254],[79.7374,8.126]]],[[[79.7926,8.1676],[79.7954,8.1654],[79.7954,8.1646],[79.7926,8.1676]]],[[[79.7513,8.1713],[79.7524,8.1699],[79.7504,8.1693],[79.7513,8.1713]]],[[[79.8068,8.1743],[79.8124,8.1654],[79.8104,8.1624],[79.8071,8.169],[79.8068,8.1743]]],[[[79.7557,8.1749],[79.7593,8.1749],[79.7551,8.1732],[79.7557,8.1749]]],[[[79.7482,8.1768],[79.7518,8.176],[79.7487,8.1724],[79.7482,8.1768]]],[[[79.766,8.179],[79.7632,8.1785],[79.766,8.1801],[79.766,8.179]]],[[[79.7546,8.1799],[79.7574,8.1779],[79.7562,8.1774],[79.7546,8.1799]]],[[[79.7693,8.1829],[79.7699,8.1812],[79.7668,8.1799],[79.7693,8.1829]]],[[[79.7771,8.1929],[79.7799,8.1885],[79.7782,8.1865],[79.7754,8.1882],[79.7771,8.1929]]],[[[79.7718,8.2146],[79.7696,8.2076],[79.7646,8.2129],[79.7718,8.2146]]],[[[79.7813,8.2182],[79.7851,8.2163],[79.7815,8.2157],[79.7813,8.2182]]],[[[79.7776,8.2357],[79.7804,8.2346],[79.7779,8.2332],[79.7776,8.2357]]],[[[79.7776,8.2751],[79.7843,8.2671],[79.7815,8.2626],[79.7754,8.2671],[79.7776,8.2751]]],[[[79.7712,8.2754],[79.7743,8.2743],[79.774,8.2724],[79.7712,8.2754]]],[[[79.7679,8.2785],[79.7643,8.2743],[79.7601,8.2776],[79.7621,8.2785],[79.7679,8.2785]]],[[[79.7915,8.2824],[79.7929,8.286],[79.7954,8.2829],[79.7915,8.2824]]],[[[79.8332,8.299],[79.8393,8.2974],[79.8393,8.2965],[79.8332,8.299]]],[[[79.7663,8.3028],[79.754,8.2907],[79.7585,8.2762],[79.751,8.2638],[79.7621,8.2726],[79.7588,8.2579],[79.7529,8.2479],[79.7446,8.2515],[79.7363,8.2462],[79.7479,8.2874],[79.7571,8.3026],[79.7663,8.3028]]],[[[79.8337,8.3021],[79.834,8.3037],[79.836,8.3015],[79.8337,8.3021]]],[[[79.796,8.306],[79.8024,8.304],[79.7956,8.3049],[79.7999,8.294],[79.7937,8.2985],[79.7932,8.3037],[79.796,8.306]]],[[[79.8085,8.3396],[79.8046,8.3351],[79.8096,8.3176],[79.801,8.3387],[79.8085,8.3396]]],[[[79.7785,8.3774],[79.7874,8.3679],[79.7657,8.3163],[79.7601,8.3115],[79.7785,8.3774]]],[[[79.801,8.4151],[79.8049,8.4054],[79.8082,8.4035],[79.8051,8.4043],[79.8026,8.4076],[79.801,8.4151]]],[[[79.796,8.4276],[79.7974,8.4307],[79.7974,8.4274],[79.796,8.4276]]],[[[79.7913,8.4513],[79.7949,8.449],[79.7921,8.4474],[79.7913,8.4513]]],[[[79.7885,8.4571],[79.7893,8.4568],[79.7913,8.4526],[79.7896,8.4535],[79.7885,8.4571]]],[[[79.7854,8.5112],[79.7801,8.4924],[79.7835,8.4735],[79.7918,8.4699],[79.7885,8.4593],[79.784,8.4679],[79.7776,8.4937],[79.7854,8.5112]]],[[[80.0325,8.5271],[80.0431,8.4965],[80.0315,8.4647],[80.016,8.4408],[79.9887,8.4223],[79.9911,8.4153],[79.9782,8.3994],[79.9556,8.3948],[79.9519,8.3687],[79.9736,8.34],[79.9816,8.2785],[79.9962,8.2528],[79.9993,8.2276],[80.0244,8.2252],[80.0369,8.2356],[80.0611,8.2194],[80.0798,8.2212],[80.1025,8.1962],[80.0996,8.1677],[80.1079,8.15],[80.115,8.0988],[80.1275,8.08],[80.1533,8.0674],[80.1435,8.0063],[80.1499,7.9986],[80.1329,7.9679],[80.1485,7.9429],[80.1312,7.9342],[80.1198,7.9469],[80.1075,7.9477],[80.1074,7.9291],[80.1,7.9256],[80.0985,7.9148],[80.0937,7.9217],[80.0714,7.9144],[80.0733,7.8915],[80.0652,7.8867],[80.0652,7.8732],[80.0416,7.8675],[80.0378,7.8454],[80.0059,7.8295],[80.0133,7.8155],[79.9978,7.8105],[79.9951,7.796],[80.0016,7.777],[79.9934,7.7605],[80.0005,7.7442],[79.9806,7.7327],[79.9748,7.722],[79.9561,7.7195],[79.955,7.7019],[79.9405,7.6945],[79.9545,7.6943],[79.9643,7.6862],[79.9603,7.6747],[79.9493,7.6759],[79.9474,7.6818],[79.9306,7.6762],[79.9303,7.6644],[79.9224,7.6579],[79.9333,7.6486],[79.9224,7.6465],[79.9199,7.6343],[79.9057,7.6221],[79.9066,7.5947],[79.9004,7.5826],[79.9038,7.5117],[79.9377,7.3468],[79.9415,7.275],[79.9258,7.2828],[79.9069,7.2671],[79.9094,7.2804],[79.889,7.2742],[79.8763,7.2834],[79.862,7.2702],[79.8404,7.279],[79.7971,7.4915],[79.786,7.6057],[79.8029,7.6135],[79.7976,7.6137],[79.7982,7.6985],[79.7429,7.9424],[79.7063,8.0568],[79.7046,8.1674],[79.693,8.2102],[79.7387,8.2299],[79.7679,8.2621],[79.7774,8.2605],[79.7651,8.2413],[79.7693,8.2174],[79.7624,8.2165],[79.7565,8.2246],[79.7379,8.2018],[79.7493,8.1838],[79.7382,8.144],[79.7279,8.1368],[79.7268,8.1232],[79.7366,8.1082],[79.7315,8.0846],[79.7393,8.0707],[79.7543,8.0649],[79.7554,8.0632],[79.7418,8.0538],[79.7451,8.0343],[79.7363,8.0157],[79.746,7.9943],[79.7712,7.9829],[79.8146,7.9771],[79.8315,7.9829],[79.8335,8.0207],[79.7893,8.0761],[79.7999,8.0735],[79.7899,8.0871],[79.8026,8.0851],[79.8149,8.0988],[79.8201,8.1229],[79.8346,8.1299],[79.8337,8.151],[79.819,8.1626],[79.816,8.1821],[79.8243,8.1815],[79.8204,8.2035],[79.811,8.2149],[79.794,8.224],[79.7929,8.2274],[79.7993,8.2221],[79.8101,8.2249],[79.7893,8.2335],[79.8107,8.2379],[79.819,8.2726],[79.8337,8.296],[79.8454,8.2874],[79.8349,8.3057],[79.8374,8.321],[79.8321,8.3237],[79.8465,8.3512],[79.8432,8.4238],[79.8476,8.4399],[79.8649,8.4529],[79.8618,8.4696],[79.8701,8.534],[79.8737,8.5399],[79.8849,8.5365],[79.916,8.5487],[79.9243,8.5655],[79.936,8.5576],[79.9492,8.5607],[79.9573,8.5534],[79.9778,8.5538],[79.9906,8.5435],[80.001,8.5458],[80.0119,8.5343],[80.0325,8.5271]]]]}},{"type":"Feature","properties":{"district_id":"RAT","district":"Ratnapura","constituent_admin_districts":["Ratnapura"],"source":"thejeshgn/srilanka electoral_districts_map (derived from GADM 2.7 LKA_adm1), CC-BY, simplified"},"geometry":{"type":"Polygon","coordinates":[[[80.496,6.8317],[80.4921,6.8159],[80.5023,6.8085],[80.4886,6.7966],[80.5014,6.7783],[80.5274,6.768],[80.5438,6.7757],[80.5727,6.7639],[80.6343,6.7535],[80.6538,6.7512],[80.6606,6.762],[80.7057,6.755],[80.7324,6.7635],[80.7448,6.7583],[80.7745,6.7784],[80.7893,6.774],[80.8095,6.792],[80.8115,6.7557],[80.827,6.7617],[80.8347,6.7455],[80.8535,6.7466],[80.8579,6.7415],[80.8503,6.7301],[80.8549,6.7194],[80.8118,6.7036],[80.8255,6.6896],[80.8297,6.6696],[80.8476,6.6666],[80.8574,6.6575],[80.8636,6.6656],[80.8816,6.664],[80.8907,6.6756],[80.9079,6.6785],[80.915,6.6947],[80.928,6.6876],[80.9124,6.6713],[80.904,6.6395],[80.8756,6.6106],[80.8766,6.5939],[80.8696,6.5928],[80.8725,6.5819],[80.8658,6.5788],[80.8608,6.5604],[80.8636,6.5497],[80.8278,6.4901],[80.8431,6.4561],[80.8362,6.4405],[80.8428,6.4339],[80.838,6.427],[80.8444,6.407],[80.8388,6.4017],[80.8625,6.3698],[80.8654,6.357],[80.903,6.3439],[80.9186,6.298],[80.932,6.2849],[80.9349,6.2713],[80.9413,6.2706],[80.9505,6.2348],[80.9397,6.2279],[80.9311,6.2401],[80.9104,6.2381],[80.8926,6.2491],[80.8835,6.2457],[80.8692,6.2667],[80.8579,6.272],[80.798,6.2671],[80.7031,6.3068],[80.6701,6.306],[80.6697,6.3187],[80.6752,6.3218],[80.6572,6.3372],[80.6634,6.3398],[80.6613,6.3538],[80.6112,6.3459],[80.6065,6.3597],[80.6175,6.3711],[80.6188,6.3963],[80.5549,6.3895],[80.5496,6.3961],[80.5447,6.3891],[80.5338,6.3882],[80.5337,6.3743],[80.4962,6.3674],[80.491,6.3801],[80.4721,6.3782],[80.4405,6.3947],[80.4315,6.3893],[80.4199,6.392],[80.3826,6.4241],[80.3744,6.4449],[80.2943,6.5622],[80.3133,6.5703],[80.3033,6.5952],[80.282,6.6176],[80.255,6.6268],[80.2492,6.6582],[80.2153,6.6917],[80.1994,6.7261],[80.2056,6.7329],[80.1775,6.8113],[80.2026,6.8174],[80.1947,6.8508],[80.177,6.8592],[80.1836,6.8865],[80.224,6.9311],[80.2306,6.9242],[80.2332,6.9031],[80.241,6.9075],[80.2508,6.9015],[80.2688,6.8743],[80.2822,6.8701],[80.2849,6.8555],[80.3108,6.8623],[80.3287,6.8363],[80.3405,6.8301],[80.3574,6.8497],[80.3787,6.8544],[80.3889,6.85],[80.4,6.8597],[80.424,6.8398],[80.432,6.8481],[80.4516,6.8331],[80.496,6.8317]]]}},{"type":"Feature","properties":{"district_id":"TRI","district":"Trincomalee","constituent_admin_districts":["Trincomalee"],"source":"thejeshgn/srilanka electoral_districts_map (derived from GADM 2.7 LKA_adm1), CC-BY, simplified"},"geometry":{"type":"MultiPolygon","coordinates":[[[[81.2271,8.5137],[81.2249,8.5124],[81.2271,8.5146],[81.2271,8.5137]]],[[[81.2346,8.5346],[81.2307,8.5307],[81.2315,8.5332],[81.2346,8.5346]]],[[[81.2451,8.5435],[81.2485,8.5429],[81.2451,8.5421],[81.2451,8.5435]]],[[[81.2135,8.544],[81.2157,8.5415],[81.2138,8.5415],[81.2135,8.544]]],[[[81.2107,8.5487],[81.2132,8.541],[81.2087,8.5387],[81.2049,8.5474],[81.2107,8.5487]]],[[[81.226,8.5554],[81.2285,8.5551],[81.2262,8.554],[81.226,8.5554]]],[[[81.2032,8.7229],[81.2071,8.7213],[81.2024,8.7215],[81.2032,8.7229]]],[[[80.959,8.9607],[80.9593,8.9618],[80.9604,8.9604],[80.959,8.9607]]],[[[80.9613,8.9862],[80.9585,8.9868],[80.9615,8.9876],[80.9613,8.9862]]],[[[80.9274,8.9909],[80.9235,8.984],[80.9154,8.9793],[80.9304,8.9715],[80.9265,8.9638],[80.9054,8.9679],[80.9063,8.949],[80.9121,8.9521],[80.9151,8.9357],[80.9226,8.9382],[80.9265,8.9343],[80.9229,8.9299],[80.9243,8.9274],[80.9288,8.9391],[80.9368,8.9285],[80.9446,8.929],[80.9479,8.9385],[80.9401,8.9427],[80.9529,8.9513],[80.9644,8.9504],[80.9613,8.9649],[80.9551,8.969],[80.9671,8.9851],[80.9971,8.941],[81.0113,8.9324],[81.016,8.9124],[81.0046,8.9046],[81.0154,8.9099],[81.0174,8.9043],[81.016,8.916],[81.0174,8.9185],[81.0332,8.8874],[81.0593,8.8615],[81.0715,8.8585],[81.0713,8.8504],[81.0757,8.8568],[81.0693,8.8601],[81.0804,8.8685],[81.0779,8.8618],[81.0863,8.8612],[81.0918,8.8349],[81.1188,8.7937],[81.1157,8.791],[81.1221,8.7921],[81.1376,8.7712],[81.1476,8.7688],[81.159,8.7468],[81.1746,8.7337],[81.1665,8.7274],[81.1618,8.7146],[81.1754,8.7307],[81.2043,8.6765],[81.2249,8.6546],[81.2268,8.6285],[81.2193,8.6204],[81.2196,8.6085],[81.2351,8.5779],[81.2457,8.5829],[81.2376,8.5699],[81.2468,8.5601],[81.2474,8.546],[81.2268,8.5354],[81.2321,8.5474],[81.2229,8.5429],[81.2218,8.5457],[81.2343,8.5615],[81.2282,8.5729],[81.224,8.576],[81.2076,8.5654],[81.2213,8.5807],[81.2188,8.584],[81.2032,8.5682],[81.2007,8.5779],[81.2007,8.5718],[81.1926,8.5721],[81.1985,8.5685],[81.1921,8.5543],[81.1971,8.5579],[81.2057,8.5549],[81.1924,8.5451],[81.2029,8.5429],[81.2015,8.5296],[81.2132,8.5318],[81.2054,8.5279],[81.2118,8.5082],[81.1926,8.5076],[81.1851,8.5135],[81.1885,8.531],[81.1843,8.5363],[81.1776,8.526],[81.1535,8.5451],[81.1338,8.5124],[81.1212,8.5074],[81.1357,8.4888],[81.1499,8.5068],[81.1699,8.514],[81.1907,8.506],[81.2021,8.461],[81.1988,8.4571],[81.1929,8.4582],[81.1826,8.4513],[81.1818,8.4462],[81.1874,8.4471],[81.1826,8.4401],[81.1829,8.4293],[81.1885,8.4449],[81.1882,8.4485],[81.1837,8.451],[81.2001,8.4565],[81.2038,8.4604],[81.2046,8.4693],[81.2293,8.461],[81.2257,8.4579],[81.2299,8.4579],[81.2304,8.4629],[81.2535,8.4624],[81.2515,8.4593],[81.2521,8.4582],[81.2782,8.4649],[81.2879,8.4843],[81.2807,8.5074],[81.3015,8.509],[81.3165,8.5249],[81.3538,8.496],[81.3793,8.3824],[81.3932,8.3596],[81.3788,8.3604],[81.3746,8.3646],[81.3735,8.3738],[81.3696,8.3796],[81.3757,8.3512],[81.3879,8.3576],[81.3876,8.3299],[81.404,8.2638],[81.4009,8.2503],[81.3931,8.2508],[81.3909,8.262],[81.3853,8.2541],[81.3593,8.2546],[81.3537,8.2681],[81.3286,8.2646],[81.3102,8.2527],[81.2881,8.2611],[81.2726,8.2412],[81.2658,8.241],[81.269,8.2348],[81.2503,8.2261],[81.2514,8.21],[81.2376,8.1943],[81.2429,8.1791],[81.2345,8.1741],[81.2315,8.1553],[81.208,8.1488],[81.1919,8.1525],[81.2069,8.163],[81.2134,8.1795],[81.2045,8.1839],[81.2062,8.2156],[81.1994,8.2314],[81.1869,8.2274],[81.1662,8.2346],[81.1394,8.2609],[81.1241,8.263],[81.1056,8.256],[81.0776,8.2716],[81.0501,8.2722],[81.0363,8.2789],[80.9888,8.2731],[80.9801,8.3125],[80.9623,8.3237],[80.952,8.3229],[80.9408,8.3425],[80.9311,8.3452],[80.9242,8.3369],[80.9275,8.3743],[80.9414,8.3978],[80.9538,8.4392],[80.9726,8.4601],[80.9717,8.4686],[80.9909,8.4748],[80.9859,8.4849],[80.9633,8.4857],[80.9636,8.4983],[80.9473,8.5075],[80.944,8.5518],[80.9171,8.5848],[80.9159,8.6051],[80.8939,8.6219],[80.8934,8.6461],[80.9135,8.68],[80.8914,8.7225],[80.891,8.7426],[80.8788,8.7527],[80.8795,8.7676],[80.8831,8.7886],[80.9109,8.8236],[80.9126,8.8369],[80.8715,8.8821],[80.8535,8.887],[80.8123,8.9153],[80.7848,8.9206],[80.753,8.9052],[80.7621,8.9361],[80.7747,8.947],[80.827,8.9557],[80.8329,8.9615],[80.8679,8.9598],[80.8873,8.9731],[80.8884,8.9802],[80.919,8.9842],[80.9274,8.9909]]]]}}]}